{"type":"Topology","arcs":[[[2962,3108],[-15,22]],[[2947,3130],[-1,52]],[[2946,3182],[75,-6]],[[3021,3176],[20,-38]],[[3041,3138],[-9,-34]],[[3032,3104],[-70,4]],[[3095,3126],[-54,12]],[[3021,3176],[12,52],[56,38]],[[3089,3266],[78,6],[52,-85]],[[3219,3187],[-93,-55],[-31,-6]],[[3137,3081],[-13,-5]],[[3124,3076],[-28,17]],[[3096,3093],[-1,33]],[[3219,3187],[24,20],[77,-8]],[[3320,3199],[-63,-38],[-53,-57],[-67,-23]],[[3189,3009],[6,21]],[[3195,3030],[26,-45],[57,-7],[-4,-50],[-82,47],[-3,34]],[[3239,3061],[54,-20],[15,-51],[-68,2],[-1,69]],[[2945,3105],[2,25]],[[2962,3108],[24,-34]],[[2986,3074],[-39,-32]],[[2947,3042],[-2,63]],[[2867,3020],[-37,39],[26,10],[11,-49]],[[3116,2934],[6,-16]],[[3122,2918],[-42,-46],[-44,3]],[[3036,2875],[-46,61]],[[2990,2936],[-1,21]],[[2989,2957],[127,-23]],[[2949,2823],[-39,34]],[[2910,2857],[16,27]],[[2926,2884],[-1,58]],[[2925,2942],[65,-6]],[[3036,2875],[-24,-26]],[[3012,2849],[-63,-26]],[[2872,2940],[53,2]],[[2926,2884],[-54,56]],[[3212,2892],[-31,-62],[-131,-43]],[[3050,2787],[-38,62]],[[3122,2918],[90,-26]],[[3116,2934],[9,10]],[[3125,2944],[33,10]],[[3158,2954],[55,-26],[-1,-36]],[[2945,3105],[-43,-20],[-24,35],[-51,8],[14,40]],[[2841,3168],[7,66]],[[2848,3234],[98,-52]],[[2785,2927],[67,-30],[-63,-58],[-51,11]],[[2738,2850],[-23,36]],[[2715,2886],[11,58]],[[2726,2944],[59,-17]],[[3096,3093],[-19,-23]],[[3077,3070],[-34,15]],[[3043,3085],[-11,19]],[[3077,3070],[-14,-31]],[[3063,3039],[-27,15]],[[3036,3054],[7,31]],[[3036,3054],[-10,-5]],[[3026,3049],[-40,25]],[[3084,2994],[41,-50]],[[2989,2957],[46,56]],[[3035,3013],[28,26]],[[3063,3039],[21,-45]],[[3026,3049],[-19,-9],[18,-18]],[[3025,3022],[10,-8]],[[3035,3014],[-19,-22],[-69,50]],[[2785,2927],[20,38],[67,-25]],[[2910,2857],[-31,-42],[31,-27],[7,-69],[-32,-41]],[[2885,2678],[-46,63],[-70,-2]],[[2769,2739],[-35,43],[4,68]],[[3084,2994],[44,12],[30,-52]],[[3026,3049],[-1,-27]],[[3035,3013],[0,1]],[[3083,3048],[48,-9],[-30,-21],[-18,30]],[[3137,3081],[28,-27],[-35,-5],[-6,27]],[[3089,3266],[-28,41]],[[3061,3307],[19,59],[68,17],[31,28],[7,96],[-11,36]],[[3175,3543],[34,11],[16,74]],[[3225,3628],[72,-15],[51,34],[34,-125],[33,-48],[71,-46],[-45,-73],[44,-10],[-20,-49],[-68,4],[-50,-26],[-27,-75]],[[2848,3234],[18,35]],[[2866,3269],[68,-5],[127,43]],[[3050,2787],[-59,-176],[-46,76],[-12,101],[16,35]],[[2841,3168],[-41,-12],[-49,47]],[[2751,3203],[56,76],[-10,14]],[[2797,3293],[55,4],[14,-28]],[[2697,3845],[16,136]],[[2713,3981],[108,1],[0,-40]],[[2821,3942],[-55,-40],[-10,-48],[-59,-9]],[[2852,3297],[5,30],[62,9],[14,30],[75,-8],[72,8],[-19,-59]],[[2866,3269],[-14,28]],[[2715,3597],[-4,-60],[-42,-13],[-28,-64],[-1,-57]],[[2640,3403],[-44,-41],[-32,29],[-52,-9]],[[2512,3382],[-23,29],[3,53],[-43,29],[16,81],[-8,61]],[[2457,3635],[68,33],[9,34]],[[2534,3702],[84,-11],[41,31]],[[2659,3722],[75,-58],[-19,-67]],[[2659,3722],[-2,90],[40,33]],[[2821,3942],[25,-53],[104,63],[35,-20],[6,-48],[48,-52]],[[3039,3832],[-60,-27],[-16,-69],[-52,2],[-26,-130]],[[2885,3608],[-66,-26],[-38,57],[-66,-42]],[[2852,3297],[-55,-4]],[[2797,3293],[-40,4],[-117,106]],[[2885,3608],[49,3],[19,-55],[35,-31],[67,15],[19,-20],[101,23]],[[2552,3164],[-19,79],[-56,79]],[[2477,3322],[35,60]],[[2751,3203],[28,-63],[-35,-39],[-106,60],[-55,-23],[-31,26]],[[3039,3832],[74,-55],[43,-9],[28,54],[62,-51],[-25,-102],[4,-41]],[[2001,2732],[19,83],[40,28]],[[2060,2843],[51,16]],[[2111,2859],[51,-9],[62,-92],[-78,-53]],[[2146,2705],[-74,55],[-22,-44],[-49,16]],[[2782,2693],[-110,30],[-73,63]],[[2599,2786],[-49,46],[20,71]],[[2570,2903],[110,-2],[35,-15]],[[2769,2739],[13,-46]],[[2652,2533],[-50,-26]],[[2602,2507],[-29,-50],[-69,6]],[[2504,2463],[-28,35],[-64,18],[-79,1],[-54,89]],[[2279,2606],[90,-38],[57,28],[-19,54]],[[2407,2650],[116,60],[20,37],[56,39]],[[2782,2693],[-6,-77],[29,-29]],[[2805,2587],[-17,-31],[-136,-23]],[[2652,2533],[4,-45],[-54,19]],[[2356,2891],[168,36]],[[2524,2927],[46,-24]],[[2407,2650],[-57,31],[47,24],[8,64],[-47,52],[-2,70]],[[2279,2606],[-39,20]],[[2240,2626],[-51,62],[-43,17]],[[2111,2859],[3,27],[78,27]],[[2192,2913],[57,-54],[107,32]],[[2466,3086],[49,-51],[9,-108]],[[2192,2913],[-2,19],[-94,23]],[[2096,2955],[62,57]],[[2158,3012],[61,-12],[54,11],[-14,53]],[[2259,3064],[207,22]],[[2466,3086],[59,12],[50,-19],[57,-56],[33,3],[-5,61],[59,-12],[21,-37],[-14,-94]],[[2885,2678],[-54,-30],[-26,-61]],[[1690,2079],[-18,-31],[-66,11],[-66,-9]],[[1540,2050],[-30,11]],[[1510,2061],[50,182]],[[1560,2243],[90,-5]],[[1650,2238],[12,-68]],[[1662,2170],[-2,-56],[30,-35]],[[1713,1932],[19,73]],[[1732,2005],[97,-17],[57,-25]],[[1886,1963],[19,-59],[50,-21],[12,-54]],[[1967,1829],[-37,-22],[-18,-49]],[[1912,1758],[-127,4],[-19,38]],[[1766,1800],[-11,69],[-42,63]],[[2175,2049],[-6,-39],[40,-127]],[[2209,1883],[-67,-39],[-114,37],[-42,-8],[-19,-44]],[[1886,1963],[5,71]],[[1891,2034],[60,23],[15,77],[48,-25],[72,33]],[[2086,2142],[63,-43],[26,-50]],[[1662,2170],[51,31],[102,-36],[27,-81]],[[1842,2084],[49,-50]],[[1732,2005],[-42,74]],[[2086,2142],[-7,74],[69,19],[45,31]],[[2193,2266],[85,-41]],[[2278,2225],[29,-45],[63,-24],[-26,-56]],[[2344,2100],[-55,4],[-71,-53],[-43,-2]],[[1993,2444],[-58,19]],[[1935,2463],[1,76],[-29,64]],[[1907,2603],[46,34],[3,51]],[[1956,2688],[45,44]],[[2240,2626],[-40,-22],[-33,-55],[-34,-100],[-122,32],[-18,-37]],[[2482,2188],[65,-56],[-22,-50],[-6,-89]],[[2519,1993],[-62,-13],[-26,83],[-42,-13],[-45,50]],[[2278,2225],[6,58],[109,-21],[89,-74]],[[1842,2084],[44,25],[-36,196]],[[1850,2305],[34,24],[-7,121],[58,13]],[[1993,2444],[66,-66],[71,-11],[13,-54],[28,-17]],[[2171,2296],[22,-30]],[[2504,2463],[-213,26],[-3,-46],[70,22],[67,-3],[64,-25],[88,-64],[-33,-48],[-48,-16],[-70,9]],[[2426,2318],[-120,59],[-75,4],[-60,-85]],[[2426,2318],[146,-80],[-15,-35],[-75,-15]],[[1872,2615],[35,-12]],[[1850,2305],[-77,17],[-57,-33]],[[1716,2289],[-13,79]],[[1703,2368],[-46,55],[30,32],[6,49]],[[1693,2504],[40,21],[26,58],[72,53],[41,-21]],[[1716,2289],[-37,-54],[-29,3]],[[1560,2243],[58,63],[68,25],[17,37]],[[1702,1796],[-7,45],[-89,-5],[-50,-28]],[[1556,1808],[-17,76],[-57,28],[67,70]],[[1549,1982],[8,-32],[97,-2],[59,-16]],[[1766,1800],[-64,-4]],[[1210,1589],[-9,-43],[82,-84]],[[1283,1462],[-38,-32],[-63,8],[-61,-15]],[[1121,1423],[-17,75],[-45,9],[47,82],[104,0]],[[1195,1887],[-52,-19]],[[1143,1868],[-13,71]],[[1130,1939],[33,84]],[[1163,2023],[45,-1],[38,-31]],[[1246,1991],[-51,-104]],[[1246,1991],[50,14],[21,34],[0,58]],[[1317,2097],[46,-5]],[[1363,2092],[-10,-60],[-36,-80],[-2,-54]],[[1315,1898],[-54,-20],[-66,9]],[[827,1315],[21,40]],[[848,1355],[32,63],[46,51]],[[926,1469],[36,6],[149,183]],[[1111,1658],[50,2],[17,31]],[[1178,1691],[29,-20],[3,-82]],[[1121,1423],[-16,-40],[28,-94]],[[1133,1289],[-30,-61]],[[1103,1228],[-30,10],[-4,52],[-69,32],[-89,-8],[-67,-47],[-17,48]],[[1410,1638],[59,-35]],[[1469,1603],[-45,-19],[4,-65]],[[1428,1519],[-74,-41],[-71,-16]],[[1178,1691],[93,15],[83,-1],[15,-53],[41,-14]],[[1111,1658],[15,109]],[[1126,1767],[17,101]],[[1315,1898],[15,-72],[50,4],[13,78],[31,50],[45,26],[41,77]],[[1540,2050],[9,-68]],[[1556,1808],[-89,-29],[-52,-98],[-5,-43]],[[1702,1796],[-59,-74],[9,-42]],[[1652,1680],[-14,-141]],[[1638,1539],[-50,41],[-68,-6],[-51,29]],[[1387,1146],[-21,10],[-51,110],[-54,17],[-41,-9],[-87,15]],[[1428,1519],[27,-70],[-21,-99]],[[1434,1350],[-22,0],[-6,-108],[29,-31],[-48,-65]],[[1481,1352],[-47,-2]],[[1638,1539],[-17,-132]],[[1621,1407],[-109,-26],[-31,-29]],[[1988,1649],[20,-15],[-8,-67],[-48,1],[4,-89],[-19,-52],[31,-44]],[[1968,1383],[-72,25],[-144,-34]],[[1752,1374],[-74,-36],[-7,37],[-50,32]],[[1652,1680],[110,-59],[98,3],[28,-17],[100,42]],[[1912,1758],[110,-70]],[[2022,1688],[-34,-39]],[[1968,1383],[3,-35],[94,-61]],[[2065,1287],[50,-69],[-14,-42],[-141,-18]],[[1960,1158],[-80,-11],[-29,-35],[-43,0]],[[1808,1112],[-22,70],[39,32],[-35,53],[-8,60],[-30,47]],[[1782,1015],[-28,49],[6,35],[48,13]],[[1960,1158],[20,-47]],[[1980,1111],[-5,-23],[-86,-20],[30,-48],[0,-51],[-27,-31]],[[1892,938],[-15,42],[-44,33],[-51,2]],[[1682,772],[-19,-15],[-101,28]],[[1562,785],[-34,38]],[[1528,823],[-4,70]],[[1524,893],[36,7],[-15,74],[23,19]],[[1568,993],[39,-31],[45,42],[130,11]],[[1892,938],[-12,-89]],[[1880,849],[-151,-20],[-47,-57]],[[1524,893],[-73,27],[4,51],[-21,59],[-48,22]],[[1386,1052],[1,94]],[[1481,1352],[5,-32],[57,-23],[11,-74],[23,-18],[-58,-88],[47,-58],[2,-66]],[[1147,945],[83,16],[47,64],[37,-38],[72,65]],[[1528,823],[-34,5]],[[1494,828],[-129,35],[-57,4],[-56,-29],[-148,-28]],[[1104,810],[50,59],[-7,76]],[[963,952],[44,34],[129,-10],[11,-31]],[[1104,810],[-62,-13]],[[1042,797],[-56,17]],[[986,814],[9,62],[-32,76]],[[963,952],[-34,60]],[[929,1012],[-11,115]],[[918,1127],[172,38],[13,63]],[[2208,1435],[52,-23]],[[2260,1412],[-9,-88],[66,-50],[-37,-48]],[[2280,1226],[-62,-3],[-62,76],[-91,-12]],[[1968,1383],[47,37],[158,2],[35,13]],[[2223,731],[-96,-4],[-94,92]],[[2033,819],[48,69]],[[2081,888],[115,-20],[57,-27]],[[2253,841],[-30,-110]],[[2438,1064],[39,-48],[49,-15]],[[2526,1001],[-4,-58],[-60,-145],[8,-25],[-44,-106],[-37,27],[1,119],[-11,111],[59,140]],[[2279,1600],[-70,-89],[-1,-76]],[[2022,1688],[62,-40],[90,31],[31,-40],[74,-39]],[[2421,1339],[39,-16],[-57,-95],[-7,-73]],[[2396,1155],[-96,35]],[[2300,1190],[-20,36]],[[2260,1412],[81,14],[54,-92],[26,5]],[[2084,937],[-3,-49]],[[2033,819],[-44,41],[-40,-14]],[[1949,846],[-69,3]],[[1980,1111],[79,-38],[-20,-47],[2,-72],[43,-17]],[[2084,937],[54,7],[32,65],[52,-19],[29,61],[-8,71],[57,68]],[[2396,1155],[-35,-154],[-35,-8],[-24,-94],[-49,-58]],[[2279,1600],[39,36]],[[2318,1636],[77,-4],[20,48],[34,-5]],[[2449,1675],[54,-70],[-31,-86],[-62,-66],[-7,-65],[18,-49]],[[2318,1636],[-39,52],[-48,36],[22,40],[-22,99],[-22,20]],[[2519,1993],[9,-61],[-75,-19],[-30,-39],[75,-69],[2,-37],[-40,-43],[-11,-50]],[[2438,1064],[39,89],[47,14],[27,83],[53,87],[31,135],[43,48],[33,-34],[-34,-38],[8,-61],[-35,-55],[-22,-75],[-26,-21],[-21,-118],[-22,-6],[-33,-111]],[[3316,1894],[47,15],[52,60],[33,-59],[37,69],[65,-11],[64,67],[26,-38],[-38,-21],[-6,-49],[-71,-55],[-1,-47],[-59,12],[-18,-171],[22,-36],[59,-23],[-13,-32],[-65,-20],[-30,-45],[5,-61],[-123,-80],[-29,-40],[-3,-99],[-81,-30],[28,84],[1,85],[-36,23],[3,119],[-35,142],[6,29],[61,50],[99,162]],[[1546,639],[-31,-4]],[[1515,635],[-62,23]],[[1453,658],[-14,57]],[[1439,715],[1,65],[54,48]],[[1562,785],[33,-68],[-49,-78]],[[2223,731],[-19,-66],[-74,-115],[-77,77],[-95,-9]],[[1958,618],[-21,79],[-47,43],[59,106]],[[1958,618],[-85,-30],[-12,32],[-62,-13],[-50,19]],[[1749,626],[-21,129],[-46,17]],[[1749,626],[-18,-19],[-164,-2]],[[1567,605],[-21,34]],[[1567,605],[19,-66],[-28,-53],[-56,34]],[[1502,520],[24,29],[-11,86]],[[819,375],[-43,8]],[[776,383],[-46,60]],[[730,443],[19,40]],[[749,483],[41,73]],[[790,556],[18,11]],[[808,567],[42,-47],[71,-16]],[[921,504],[-49,-71],[-55,-20],[2,-38]],[[895,199],[-77,0]],[[818,199],[-8,9]],[[810,208],[-3,35]],[[807,243],[-1,31]],[[806,274],[77,-13],[12,-62]],[[810,208],[-35,16]],[[775,224],[-1,8]],[[774,232],[33,11]],[[714,128],[83,14]],[[797,142],[28,-33]],[[825,109],[-78,-67]],[[747,42],[-42,-1],[9,87]],[[1439,715],[-47,-19],[-27,-71],[-64,-37],[-58,15]],[[1243,603],[-13,48],[7,79]],[[1237,730],[66,32],[20,51],[38,2],[17,-108],[61,8]],[[820,668],[42,72]],[[862,740],[49,44],[75,30]],[[1042,797],[-36,-33],[-2,-39],[-40,-32]],[[964,693],[-36,7],[-37,-43]],[[891,657],[-71,11]],[[749,483],[-45,97]],[[704,580],[33,14],[53,-38]],[[749,291],[-32,77]],[[717,368],[59,15]],[[819,375],[36,-36]],[[855,339],[-38,-32]],[[817,307],[-68,-16]],[[817,307],[-11,-33]],[[774,232],[-25,59]],[[797,142],[21,57]],[[895,199],[18,-36],[52,-24]],[[965,139],[-34,-35],[-106,5]],[[965,139],[34,40]],[[999,179],[63,-41]],[[1062,138],[-2,-80]],[[1060,58],[-28,-30],[-53,2]],[[979,30],[-19,32],[5,77]],[[1022,266],[25,33]],[[1047,299],[24,-11],[58,37],[65,-23]],[[1194,302],[-10,-20],[39,-64],[-58,-48]],[[1165,170],[-103,-32]],[[999,179],[23,87]],[[1047,299],[8,41],[-34,23]],[[1021,363],[-4,29],[41,70]],[[1058,462],[56,-11]],[[1114,451],[101,-126]],[[1215,325],[-21,-23]],[[935,502],[37,-1],[32,54]],[[1004,555],[73,-31],[-19,-62]],[[1021,363],[-64,-4],[10,78],[-32,65]],[[1286,307],[-16,-89],[47,-9],[-37,-104]],[[1280,105],[-57,-9],[-38,28],[-20,46]],[[1215,325],[71,-18]],[[1502,520],[-38,-12]],[[1464,508],[-26,132],[15,18]],[[1237,730],[-29,0],[-16,64],[-68,-13],[-20,29]],[[964,693],[20,-92],[-15,-27]],[[969,574],[-53,16],[-25,67]],[[808,567],[-6,48],[-35,25]],[[767,640],[53,28]],[[969,574],[35,-19]],[[935,502],[-14,2]],[[704,580],[-20,21]],[[684,601],[83,39]],[[655,741],[-60,51],[-3,30],[47,25],[83,-17]],[[722,830],[19,-58]],[[741,772],[-86,-31]],[[714,128],[-12,52],[73,44]],[[855,339],[167,-73]],[[717,368],[-43,35],[-26,68]],[[648,471],[82,-28]],[[648,471],[-27,69],[-59,67]],[[562,607],[90,58]],[[652,665],[10,-3]],[[662,662],[22,-61]],[[562,607],[-34,122],[124,-64]],[[1280,105],[54,-63]],[[1334,42],[-73,-11],[-71,40],[-130,-13]],[[979,30],[-74,-30],[-158,42]],[[1332,307],[-46,0]],[[1114,451],[37,62],[44,-6],[41,53],[7,43]],[[1464,508],[-55,-50],[-71,-99],[-6,-52]],[[1332,307],[78,-163],[-76,-102]],[[662,662],[29,33],[-36,46]],[[741,772],[97,-14],[24,-18]],[[918,1127],[-114,3],[-20,52],[-37,25]],[[747,1207],[-42,20],[50,57],[32,-8],[40,39]],[[929,1012],[-148,-71],[-32,-32]],[[749,909],[-19,71],[-81,0],[-51,106]],[[598,1086],[65,53],[60,13],[24,55]],[[722,830],[27,79]],[[696,1463],[61,-18],[2,-68],[33,7],[56,-29]],[[598,1086],[2,37],[-121,82],[7,44]],[[486,1249],[92,13],[30,131],[88,70]],[[486,1249],[-34,39],[-17,72],[-52,64],[23,60]],[[406,1484],[104,25]],[[510,1509],[13,-53],[48,36],[83,5],[42,-34]],[[310,1680],[31,0]],[[341,1680],[89,7],[37,20]],[[467,1707],[26,-29],[-2,-73],[29,-45],[-10,-51]],[[406,1484],[-4,25],[-81,21],[-25,62],[14,88]],[[542,1797],[56,-84]],[[598,1713],[-95,15],[-36,-21]],[[467,1707],[-75,18],[-21,38]],[[371,1763],[11,3]],[[382,1766],[57,31]],[[439,1797],[103,0]],[[426,1832],[13,-35]],[[382,1766],[4,61],[40,5]],[[198,1829],[15,-10],[-20,-47],[-13,38],[18,19]],[[250,1990],[24,22],[3,67],[27,52]],[[304,2131],[52,-19]],[[356,2112],[20,-80]],[[376,2032],[-30,-48],[-96,6]],[[214,1996],[-47,-32],[-29,76],[67,40],[45,-24],[-36,-60]],[[285,2100],[-124,-29],[-73,66],[135,56],[48,11],[28,-32],[-14,-72]],[[157,2201],[24,3]],[[181,2204],[-57,-37]],[[124,2167],[33,34]],[[66,2370],[55,18]],[[121,2388],[16,-24]],[[137,2364],[-36,-66]],[[101,2298],[-36,1],[1,71]],[[333,2345],[-139,-35]],[[194,2310],[-14,61],[-43,-7]],[[121,2388],[23,80],[32,52],[52,11],[23,97]],[[251,2628],[53,-50]],[[304,2578],[36,-43],[-39,-65],[-1,-57],[33,-68]],[[18,2648],[85,8],[39,33]],[[142,2689],[23,-14],[66,26]],[[231,2701],[20,-73]],[[66,2370],[-21,72],[19,24],[-52,116],[6,66]],[[319,2934],[86,-110],[35,-96],[-25,-78],[-47,-43]],[[368,2607],[-64,-29]],[[231,2701],[30,93],[34,45],[-4,76],[28,19]],[[368,2607],[61,-3],[32,-32]],[[461,2572],[11,-46],[-23,-43]],[[449,2483],[-19,-21],[-30,-125]],[[400,2337],[-67,8]],[[421,2019],[37,6],[62,67]],[[520,2092],[28,-20]],[[548,2072],[-13,-70]],[[535,2002],[-37,-22],[-15,-56],[-64,-24]],[[419,1900],[-62,-5]],[[357,1895],[55,86],[9,38]],[[426,1832],[-7,68]],[[535,2002],[36,-9],[-41,-76],[33,-90]],[[563,1827],[-21,-30]],[[652,1887],[-8,80],[-41,36],[22,35],[51,26]],[[676,2064],[93,13]],[[769,2077],[-18,-46],[38,-17],[6,-51],[-26,-23]],[[769,1940],[-54,-49]],[[715,1891],[-63,-4]],[[652,1887],[44,2]],[[696,1889],[-34,-95],[29,-34],[-54,-45]],[[637,1715],[-39,-2]],[[563,1827],[17,-9],[72,69]],[[599,2169],[-13,53]],[[586,2222],[8,53],[58,23]],[[652,2298],[93,-19]],[[745,2279],[-26,-40],[12,-43]],[[731,2196],[-19,7],[-90,-39],[-23,5]],[[597,2143],[2,26]],[[731,2196],[15,-83],[35,-33]],[[781,2080],[-12,-3]],[[676,2064],[-19,75],[-60,4]],[[1454,2580],[28,-56],[58,-15],[39,30]],[[1579,2539],[17,-33]],[[1596,2506],[-81,-57],[-5,-62],[-62,-103]],[[1448,2284],[-43,1]],[[1405,2285],[28,50],[-15,70]],[[1418,2405],[-24,45],[0,72],[43,8],[17,50]],[[1277,2656],[1,78],[51,28]],[[1329,2762],[67,-32]],[[1396,2730],[24,-124]],[[1420,2606],[-87,-24]],[[1333,2582],[0,72],[-56,2]],[[934,1752],[6,-40],[74,-8],[65,18],[47,45]],[[926,1469],[-34,58],[33,100],[-63,29],[36,69]],[[898,1725],[36,27]],[[319,2934],[58,18],[125,4],[13,-54],[68,-6],[17,-40]],[[600,2856],[-24,-39],[-8,-101],[10,-79]],[[578,2637],[-77,7],[-6,-58],[-34,-14]],[[608,2401],[-159,82]],[[578,2637],[53,-33]],[[631,2604],[-31,-44],[1,-43],[76,-38],[-69,-78]],[[421,2019],[-45,13]],[[356,2112],[-6,22],[77,93]],[[427,2227],[42,-31],[-30,-34],[23,-62],[58,-8]],[[637,1715],[16,-58],[46,33],[39,-25],[42,10]],[[780,1675],[-54,-83],[18,-76],[-48,-53]],[[780,1675],[95,70],[23,-20]],[[975,1976],[-69,-56],[-47,-12]],[[859,1908],[-90,32]],[[781,2080],[117,8]],[[898,2088],[49,-44],[28,-68]],[[910,2253],[20,-37],[66,-22]],[[996,2194],[-98,-106]],[[745,2279],[58,-41],[107,15]],[[1133,2405],[-35,-58]],[[1098,2347],[-131,-32]],[[967,2315],[-32,47]],[[935,2362],[21,14],[22,72],[121,58]],[[1099,2506],[-15,-77],[49,-24]],[[1331,2371],[87,34]],[[1405,2285],[-15,-30],[-58,-4]],[[1332,2251],[-30,26],[29,94]],[[1242,2428],[-13,14],[73,126],[31,14]],[[1420,2606],[34,-26]],[[1331,2371],[-24,2],[-28,67],[-37,-12]],[[371,1763],[-44,-18],[14,-65]],[[310,1680],[5,50],[-88,57],[-1,33],[38,35]],[[264,1855],[40,32],[53,8]],[[264,1855],[-49,39],[35,96]],[[194,2310],[-30,-62]],[[164,2248],[-59,1],[-4,49]],[[124,2167],[-3,31],[43,30]],[[164,2228],[-7,-27]],[[164,2228],[0,20]],[[400,2337],[36,-47],[-9,-63]],[[304,2131],[18,30],[-35,66],[-40,14],[-66,-37]],[[18,2648],[-18,56],[5,77],[39,56],[67,13],[38,-71],[-7,-90]],[[608,2401],[-65,-50],[-29,-56],[138,3]],[[586,2222],[-44,-32],[-52,56],[-63,-19]],[[597,2143],[-33,-20],[-16,-51]],[[696,1889],[19,2]],[[859,1908],[-5,-30],[53,-60],[-5,-43],[32,-23]],[[975,1976],[55,-15],[36,-34],[64,12]],[[734,2796],[-56,-84],[-9,-58],[-38,-50]],[[600,2856],[48,-10],[31,45],[55,-33],[0,-62]],[[1099,2506],[71,7],[-45,86],[9,24],[99,-26],[44,59]],[[1242,2428],[-35,-37],[-74,14]],[[652,2298],[66,63],[53,7],[105,147],[49,-19],[-43,-118],[53,-16]],[[967,2315],[-69,-31],[12,-31]],[[1098,2347],[69,-45]],[[1167,2302],[-13,-26],[-111,-46],[-47,-36]],[[1332,2251],[-80,-61]],[[1252,2190],[-55,-17]],[[1197,2173],[16,42],[-59,5],[13,82]],[[1448,2284],[-53,-77],[-32,-115]],[[1317,2097],[18,79],[-83,14]],[[1163,2023],[-27,70],[61,80]],[[913,3099],[-91,60]],[[822,3159],[63,76]],[[885,3235],[118,5]],[[1003,3240],[8,-58],[26,-16],[-24,-56]],[[1013,3110],[-71,12],[-29,-23]],[[541,3195],[-120,40],[-29,63]],[[392,3298],[-28,92],[48,40],[82,-7],[84,49],[44,53]],[[622,3525],[15,-39],[-18,-59],[12,-66],[-52,-28],[-38,-97],[0,-41]],[[684,3558],[-33,36]],[[651,3594],[16,39],[-13,106],[50,64],[0,81],[-37,62],[3,36],[-48,72],[-15,111],[-42,96],[107,21],[80,2]],[[752,4284],[9,-38],[192,-186],[11,-51],[94,-131],[24,-60],[29,-20]],[[1111,3798],[-25,-30],[-17,-88],[-82,-47],[-55,-7],[33,-46]],[[965,3580],[-69,-47],[-68,-11],[-48,53],[-96,-17]],[[1295,3098],[2,54]],[[1297,3152],[14,28],[101,9],[73,-17]],[[1485,3172],[1,-44]],[[1486,3128],[-1,-63],[-39,-38],[-25,-55]],[[1421,2972],[-45,29],[16,65],[-44,-3],[-53,35]],[[1034,2990],[74,11]],[[1108,3001],[-46,-63],[-28,52]],[[1019,3397],[107,-6],[-4,-46]],[[1122,3345],[-74,-43],[-29,6]],[[1019,3308],[0,89]],[[1003,3240],[16,68]],[[1122,3345],[28,-28]],[[1150,3317],[-46,-75],[18,-82],[-39,-50],[-70,0]],[[913,3099],[-5,-96]],[[908,3003],[0,-56],[-24,-20]],[[884,2927],[-77,7],[-12,28],[13,81],[-27,30]],[[781,3073],[-12,34],[22,51],[31,1]],[[319,2934],[3,81],[-14,33],[-28,152],[23,37],[49,9],[40,52]],[[541,3195],[6,-62],[-16,-42],[62,0],[31,-31]],[[624,3060],[-24,-89],[19,-61],[-19,-54]],[[885,3235],[-74,88],[-39,64],[-44,19],[7,92],[-41,11],[-10,49]],[[965,3580],[54,-183]],[[1150,3317],[36,3]],[[1186,3320],[76,-146],[35,-22]],[[1295,3098],[-8,-37],[-51,-27],[-5,-49]],[[1231,2985],[-84,32],[-39,-16]],[[1034,2990],[-24,27],[-102,-14]],[[1421,2972],[0,-8]],[[1421,2964],[-18,-115],[21,-45],[-28,-74]],[[1329,2762],[-9,49],[-66,-4],[56,96],[-15,69],[-64,13]],[[1278,3621],[-7,59]],[[1271,3680],[81,-18]],[[1352,3662],[31,-109],[96,-56]],[[1479,3497],[-11,-264],[17,-61]],[[1186,3320],[43,29],[24,95],[30,11],[17,100],[-22,66]],[[1111,3798],[53,-4],[64,-112],[50,-61]],[[781,3073],[-38,-24],[-85,-7],[-34,18]],[[622,3525],[29,69]],[[884,2927],[50,-135],[12,-115],[-67,8],[-11,74],[-78,54],[-56,-17]],[[1533,2810],[-5,68],[19,40]],[[1547,2918],[65,8],[17,46]],[[1629,2972],[31,-12],[29,-40],[41,-35]],[[1730,2885],[11,-50]],[[1741,2835],[-49,-35]],[[1692,2800],[-36,-1],[-69,-46]],[[1587,2753],[17,78],[-71,-21]],[[1396,2730],[82,23],[4,43],[51,14]],[[1587,2753],[3,-38]],[[1590,2715],[-29,-58],[-7,-59],[25,-59]],[[1692,2800],[132,8],[52,52]],[[1876,2860],[15,-77],[27,-19],[-7,-54],[45,-22]],[[1872,2615],[-14,52],[-105,85],[-163,-37]],[[1421,2964],[103,-11],[23,-35]],[[1593,3091],[-107,37]],[[1479,3497],[132,-17]],[[1611,3480],[7,-54],[63,-116]],[[1681,3310],[14,-36]],[[1695,3274],[-94,-14],[18,-45],[-28,-38],[2,-86]],[[1774,3496],[40,-25]],[[1814,3471],[-56,-146],[-77,-15]],[[1611,3480],[-12,68],[55,21],[34,-46],[61,6],[25,-33]],[[1747,2866],[-17,19]],[[1629,2972],[-23,33]],[[1606,3005],[86,12],[28,62],[62,-14],[7,48]],[[1789,3113],[48,2],[6,-46],[131,-18]],[[1974,3051],[18,-79]],[[1992,2972],[-30,4],[-116,-35],[63,-22],[58,20],[36,-39],[6,-53],[51,-4]],[[1876,2860],[-129,6]],[[1741,2835],[6,31]],[[1693,2504],[18,34],[-47,45],[-25,-53],[-43,-24]],[[1593,3091],[-12,-45],[25,-41]],[[1695,3274],[18,-99],[50,3],[26,-65]],[[2030,3127],[0,-79],[-56,3]],[[1814,3471],[80,-97]],[[1894,3374],[59,-114]],[[1953,3260],[-19,-38],[47,-18],[7,-81],[42,4]],[[1894,3374],[55,75],[64,-12]],[[2013,3437],[42,-37],[49,7],[18,-35]],[[2122,3372],[26,-40],[2,-62]],[[2150,3270],[-15,-33],[-55,-26],[-36,39],[-91,10]],[[2122,3372],[78,37]],[[2200,3409],[44,-30],[31,-57]],[[2275,3322],[-5,-78]],[[2270,3244],[-62,-19]],[[2208,3225],[-58,45]],[[2183,3091],[14,-32],[62,5]],[[2158,3012],[-56,73]],[[2102,3085],[81,6]],[[2263,3106],[-71,96],[16,23]],[[2270,3244],[38,-91],[-45,-47]],[[2054,3615],[49,-9],[54,17]],[[2157,3623],[66,-47],[10,-38]],[[2233,3538],[1,-56],[-42,-40]],[[2192,3442],[-87,47],[-14,27],[-65,-24]],[[2026,3492],[-21,24],[49,99]],[[2552,3164],[-37,3],[-46,-31],[-58,48],[-58,-81],[-90,3]],[[2275,3322],[75,48],[127,-48]],[[2200,3409],[-8,33]],[[2233,3538],[79,8],[81,85],[64,4]],[[2013,3437],[13,55]],[[2263,3106],[-80,-15]],[[2102,3085],[-72,42]],[[2096,2955],[-104,17]],[[1271,3680],[-15,128],[3,101],[41,17],[7,57]],[[1307,3983],[147,14]],[[1454,3997],[14,-35],[60,-55]],[[1528,3907],[37,-138],[0,-78]],[[1565,3691],[-48,-34],[-58,18],[-107,-13]],[[838,4508],[108,121],[19,-62],[77,-120],[21,-96],[41,-44],[10,-46]],[[1114,4261],[23,-129],[125,0],[49,-42],[-34,-50],[30,-57]],[[752,4284],[12,71],[35,24],[39,129]],[[1851,3946],[-22,-68],[-73,-62],[2,-32]],[[1758,3784],[-35,-32],[-83,8],[-48,-68],[-27,-1]],[[1528,3907],[82,-3],[72,-20],[74,68],[95,-6]],[[1454,3997],[82,51],[46,50]],[[1582,4098],[27,-36],[135,48]],[[1744,4110],[70,-21],[47,28],[117,19]],[[1978,4136],[16,-20],[-69,-38],[-51,-8],[-43,-37],[20,-87]],[[1749,4594],[37,84],[29,-69]],[[1815,4609],[177,-215],[12,-69],[32,-53]],[[2036,4272],[-28,-15],[-30,-121]],[[1744,4110],[-31,29]],[[1713,4139],[-41,58],[17,47],[45,24]],[[1734,4268],[12,65],[-23,40],[19,112],[7,109]],[[1480,4665],[36,33]],[[1516,4698],[64,-22],[37,-67],[132,-15]],[[1734,4268],[-143,1],[-54,14],[-9,78],[-63,96],[-6,66],[-25,43],[15,67],[31,32]],[[1304,4703],[31,-47],[10,-84],[43,-135],[-4,-41],[63,-86],[-118,18],[-50,-53],[-76,4],[-89,-18]],[[838,4508],[-109,163],[-61,-3],[-106,122],[77,399]],[[639,5189],[124,-34],[72,4],[142,-156],[55,25],[30,-39],[-68,-55],[82,-83],[77,-118],[151,-30]],[[1774,3496],[42,62],[12,60],[-6,71]],[[1822,3689],[96,-8],[79,-38]],[[1997,3643],[57,-28]],[[1713,4139],[-31,-18],[-68,59],[-44,-5],[12,-77]],[[1304,4703],[89,-2],[87,-36]],[[2245,3944],[-40,-11]],[[2205,3933],[-71,-17],[-80,-91],[-39,-5]],[[2015,3820],[-27,52],[-43,0],[-74,44],[-20,30]],[[2036,4272],[74,-35]],[[2110,4237],[88,-7]],[[2198,4230],[42,-91],[69,-67]],[[2309,4072],[-31,-81],[-33,-47]],[[1806,3707],[-48,77]],[[2015,3820],[-61,-14],[-24,-41],[-68,-52],[-56,-6]],[[2205,3933],[-75,-70],[-22,-66],[-69,-131],[-42,-23]],[[1822,3689],[-16,18]],[[2318,3768],[-27,-15],[0,-55],[-58,-36],[-49,8],[-27,-47]],[[2205,3933],[56,-68],[57,-97]],[[2318,3768],[50,-12]],[[2368,3756],[48,-53],[5,-41],[36,-27]],[[2502,4067],[-56,-12],[-69,21],[-68,-4]],[[2198,4230],[69,38],[80,2],[22,30]],[[2369,4300],[144,-32]],[[2513,4268],[-8,-87],[30,-70],[-33,-44]],[[2245,3944],[76,-13],[72,-55],[33,-53],[-58,-67]],[[2143,4638],[73,-52],[32,-64],[-56,-95],[-82,-190]],[[1815,4609],[37,50],[59,28],[84,16],[42,-39],[106,-26]],[[2146,5165],[72,3]],[[2218,5168],[109,-2],[114,-22],[46,-23],[231,-20]],[[2718,5101],[-13,-101],[-29,-46],[-14,-67]],[[2662,4887],[-41,13],[-78,-31],[-29,6],[-71,91],[-31,64],[-266,135]],[[1516,4698],[12,121],[67,90],[142,-21],[28,58],[-11,33],[132,91],[-7,57],[-29,64]],[[1850,5191],[62,48],[56,4],[162,-64]],[[2130,5179],[64,-113],[-6,-19],[44,-138],[30,-21],[-16,-58],[136,-118]],[[2382,4712],[-131,10],[-108,-84]],[[2513,4268],[107,13]],[[2620,4281],[28,-41],[-23,-37],[48,-73],[-12,-39],[46,-39],[-52,-44],[58,-27]],[[2534,3702],[-2,48],[-46,22],[58,103],[-29,32],[-13,160]],[[2414,4602],[19,32],[70,-55],[58,-2],[27,-26]],[[2588,4551],[8,-38],[51,-51],[-42,-73],[15,-108]],[[2369,4300],[62,61],[9,63],[-15,57],[11,50],[-22,71]],[[2382,4712],[-2,-92],[34,-18]],[[2130,5179],[16,-14]],[[2662,4887],[29,-27],[-1,-44],[54,-34],[-13,-64],[-84,50],[-59,-118],[29,-54],[-29,-45]],[[2261,5509],[9,-32],[68,-45],[-42,-67],[9,-66],[-20,-60],[-67,-71]],[[1850,5191],[-66,-17],[-85,43],[-31,63],[-25,5]],[[1643,5285],[12,39],[-16,100],[48,9]],[[1687,5433],[64,-7],[205,24],[145,64],[65,-13],[49,19],[46,-11]],[[2572,5630],[103,-96],[102,-127],[36,-30]],[[2813,5377],[-77,-49],[-31,53],[-35,-12]],[[2670,5369],[-61,-44],[0,112],[-39,13],[-73,73],[-3,26],[78,81]],[[2638,5673],[59,-27],[97,6],[111,-66]],[[2905,5586],[60,-21],[-39,-59],[8,-46],[-60,-44],[-21,-57],[-40,18]],[[2572,5630],[27,38],[39,5]],[[2670,5369],[43,-33],[10,-59],[-37,-37],[33,-45],[61,-14],[-62,-80]],[[2261,5509],[39,86]],[[2300,5595],[71,84],[138,20]],[[2509,5699],[63,-69]],[[2896,5902],[131,-52],[59,-34]],[[3086,5816],[20,-67],[-56,-113],[-41,-7],[-53,-51],[-51,8]],[[2638,5673],[-45,47],[-4,45],[164,75],[45,-7],[81,29],[17,40]],[[2509,5699],[-166,168],[-188,143],[3,46],[-59,4],[-5,51]],[[2094,6111],[7,36],[-76,82],[73,-11],[41,31],[60,-24],[45,6],[92,36],[-17,77],[3,54],[49,101]],[[2371,6499],[47,-43]],[[2418,6456],[158,-24]],[[2576,6432],[-29,-30],[23,-126],[45,-95],[-28,-19],[10,-59],[51,20],[25,-114],[32,-46],[108,-7],[83,-54]],[[3166,6356],[38,6],[117,-139],[1,-31],[44,-63]],[[3366,6129],[-12,-105],[-43,-11],[-1,-62],[-63,-15],[-81,-51],[-43,1],[-37,-70]],[[2576,6432],[171,-22],[250,97]],[[2997,6507],[36,-29],[-16,-33],[27,-55],[101,-13],[21,-21]],[[1908,5997],[27,57],[85,60],[74,-3]],[[2300,5595],[-34,86],[17,49],[-38,48],[-78,10],[-67,-14],[-25,16],[-150,-11],[-80,55]],[[1845,5834],[-34,29],[-1,46],[42,54],[51,-43],[28,40],[-23,37]],[[1687,5433],[-17,83],[-34,21],[11,52],[-15,64]],[[1632,5653],[61,6],[48,56],[22,53],[-3,65],[85,1]],[[1396,6777],[44,-43],[193,-45],[41,-122],[34,-60],[-23,-15],[21,-72],[40,-58],[-50,-40],[-5,-149]],[[1691,6173],[-56,-6],[-22,-29],[-69,21],[11,-62],[-23,-34],[91,-108],[-5,-65],[-56,-3]],[[1562,5887],[-70,16],[-40,29],[-116,35]],[[1336,5967],[-102,24],[-105,58],[14,49],[-15,208],[-25,15],[-24,80],[-6,142]],[[1073,6543],[159,-31],[97,-28],[77,140],[-10,153]],[[1908,5997],[-132,90],[-85,86]],[[1396,6777],[-18,64],[-60,18],[-92,58],[208,351],[44,51]],[[1478,7319],[140,-107]],[[1618,7212],[24,-55],[60,-32],[35,-80],[69,-28],[37,-50],[11,-51],[67,-45],[60,14],[21,-91],[102,-58],[3,-55],[64,7],[200,-189]],[[1336,5967],[54,-89],[-8,-26],[84,-40],[8,-37]],[[1474,5775],[-59,-19],[-44,16],[-150,-14],[-85,16],[-96,-11],[-79,-48],[-166,7],[-223,-49]],[[572,5673],[52,67],[-81,207],[99,148],[-20,86],[56,55],[38,68],[119,160],[83,56],[117,31],[38,-8]],[[1643,5285],[-99,-93],[-86,13],[-123,145],[-15,88],[-47,8],[-18,68],[-86,-33],[-88,57],[-7,-41],[39,-42],[-72,-12],[-1,32],[-55,40],[-54,17],[-26,-36],[-51,20],[-65,-1],[-60,46],[-141,-3]],[[588,5558],[-16,115]],[[1474,5775],[20,-58],[-3,-114],[43,44],[-14,80]],[[1520,5727],[41,-16],[7,-44],[64,-14]],[[639,5189],[-87,269],[36,100]],[[1520,5727],[-17,98],[52,19],[7,43]],[[3166,6356],[39,54],[147,-33],[85,57]],[[3437,6434],[64,-43]],[[3501,6391],[34,-42],[-13,-84],[20,-77]],[[3542,6188],[4,-57],[-30,-20],[-38,58],[-37,-34],[-75,-6]],[[2997,6507],[144,55]],[[3141,6562],[140,59]],[[3281,6621],[85,-65]],[[3366,6556],[45,-42],[26,-80]],[[3281,6621],[-50,60],[-40,156],[101,266]],[[3292,7103],[30,-18]],[[3322,7085],[14,-50],[49,-32],[47,2],[74,-81],[57,-40],[41,-8],[22,-45]],[[3626,6831],[-31,-81],[28,-11],[-19,-105],[-75,4],[-6,-39]],[[3523,6599],[-80,-51],[-77,8]],[[3896,6460],[-38,12],[7,65],[-48,82],[-56,39],[-69,139]],[[3692,6797],[98,-7],[50,30],[15,54],[49,21],[79,-68],[30,18],[32,-61]],[[4045,6784],[-89,-109],[-9,-72],[-51,-143]],[[3292,7103],[-205,136]],[[3087,7239],[231,142]],[[3318,7381],[64,35]],[[3382,7416],[92,-117],[70,-22],[72,-88],[-37,-41],[-21,-108],[-69,62],[-127,7],[-40,-24]],[[2864,7426],[39,138],[-7,76]],[[2896,7640],[48,-9],[57,-39],[44,0],[58,-50],[69,-26],[93,-57],[-9,-35],[62,-43]],[[3087,7239],[-173,162],[-50,25]],[[1542,7563],[16,181],[35,90],[-35,239],[155,8]],[[1713,8081],[202,-244],[353,-180],[44,-82],[155,-110],[230,-96],[100,-88]],[[2797,7281],[-12,-98],[-128,-147]],[[2657,7036],[-49,20],[-315,197],[-177,220],[-142,62],[-262,0],[-18,24],[-82,-15],[-70,19]],[[2864,7426],[-67,-145]],[[1713,8081],[20,2],[155,105],[-7,47]],[[1881,8235],[124,-40],[267,-179],[71,0],[322,-276],[187,-52]],[[2852,7688],[44,-48]],[[1618,7212],[281,-82],[174,-128],[71,-114],[84,-52],[97,-24],[37,-60]],[[2362,6752],[-30,-60],[87,-170],[39,-29],[-40,-37]],[[3523,6599],[53,-3],[0,-78],[-17,-36],[29,-50],[-87,-41]],[[2726,6875],[-24,-17],[-264,-71],[-5,-32],[-71,-3]],[[1478,7319],[16,97],[46,40],[2,107]],[[2657,7036],[-19,-13],[88,-148]],[[2726,6875],[118,-88],[61,11],[0,-38],[236,-198]],[[3626,6831],[66,-34]],[[3896,6460],[-24,-45],[-56,-10],[-29,-35],[-7,-55],[-40,-25],[-104,0],[-94,-102]],[[3382,7416],[18,18],[70,140]],[[3470,7574],[327,-112],[197,-16],[11,-28],[73,-32]],[[4078,7386],[-43,-88],[-42,-17],[15,-38],[-62,-90],[68,-4],[13,-121],[78,-36],[21,-60],[33,-22],[-41,-71],[-73,-55]],[[2852,7688],[41,7],[-12,53]],[[2881,7748],[47,23]],[[2928,7771],[44,101],[-38,72],[15,49],[41,40],[79,-17],[60,124]],[[3129,8140],[30,-44],[81,-11],[7,-23],[200,-20],[49,-55],[58,-12]],[[3554,7975],[-30,-59],[48,-176]],[[3572,7740],[-51,-68],[-104,15],[-36,-68],[89,-45]],[[1881,8235],[-27,97],[83,86],[121,211],[125,108],[14,112]],[[2197,8849],[118,-77],[136,-71],[186,-170],[161,-45],[195,-98],[38,-105],[-6,-50],[104,-93]],[[2928,7771],[-14,51],[-73,13],[-94,98],[15,40],[-62,153],[-57,24],[-121,114],[1,-34],[47,-53],[6,-34],[55,-21],[85,-76],[-70,-30],[39,-47],[0,-100],[46,45],[57,-69],[38,-94],[55,-3]],[[3900,8282],[-92,58],[-93,-33],[-111,-259]],[[3604,8048],[-50,-73]],[[2197,8849],[-13,47],[-95,140],[27,65],[71,13],[36,62],[52,217],[19,16]],[[2294,9409],[86,-42],[13,-39],[62,-4],[76,-82],[94,-16],[49,-42],[48,-4],[156,-125],[68,6],[59,-34],[151,-142],[56,-2],[101,-60],[35,-69],[176,-99],[112,-49],[131,-81],[133,-243]],[[4462,8628],[47,-171],[34,-57],[-13,-26],[45,-68],[2,-57]],[[4577,8249],[-145,-8],[-102,35],[-56,-78]],[[4274,8198],[-91,118]],[[4183,8316],[-65,89]],[[4118,8405],[43,29],[-9,111],[-50,50],[33,131]],[[4135,8726],[304,-106],[23,8]],[[4409,7946],[-55,118],[8,15],[-88,119]],[[4577,8249],[2,-40],[52,-35]],[[4631,8174],[110,-118],[9,-58]],[[4750,7998],[-56,-20],[-79,22],[-27,-82],[-106,49],[-26,54],[-41,3],[-6,-78]],[[4462,8628],[117,33],[-79,200],[216,-22]],[[4716,8839],[53,-63],[-26,-45],[13,-136],[-66,-96],[23,-47],[-12,-66],[48,-91],[49,-13]],[[4798,8282],[-33,-14],[-134,-94]],[[4135,8726],[10,61],[-141,249],[28,69]],[[4032,9105],[116,295],[104,83],[117,258]],[[4369,9741],[49,-77],[89,-49],[11,-43],[-37,-17],[-7,-51],[15,-106],[31,-40],[-31,-107],[130,-35],[1,-103],[-40,-14],[0,-77],[42,-48],[8,-38],[86,-97]],[[2294,9409],[136,91],[29,51],[119,-51],[86,-55],[8,25]],[[2672,9470],[23,-31],[114,-56],[175,5],[148,20],[49,-19],[108,-19],[70,-29],[44,3],[78,-22],[136,-60],[112,-86],[234,-6],[69,-65]],[[4118,8405],[-100,-41],[-91,-77],[-27,-5]],[[3604,8048],[264,-137],[108,-90]],[[3976,7821],[-66,-49],[17,-36],[-81,-40],[-89,46],[-75,24],[-110,-26]],[[4193,7653],[-104,59],[-103,83],[-10,26]],[[3976,7821],[41,51],[55,-30],[51,23],[34,47],[-14,24],[73,52],[-51,67],[-35,4],[11,94],[46,4],[-22,151],[18,8]],[[4409,7946],[-73,61],[-34,-16],[-2,-103],[28,-120],[-46,11],[-17,-40],[-99,-6],[49,-43],[-22,-37]],[[4193,7653],[-97,-13],[-67,-41],[84,-46],[-35,-44],[21,-71],[-21,-52]],[[4798,8282],[39,-56],[106,-200],[-108,-20],[-33,20],[-52,-28]],[[2672,9470],[63,146],[-34,158],[1,99],[89,38],[67,-49],[119,18],[303,-87],[96,107],[-97,38],[80,94],[24,98],[-15,82],[-72,83],[146,25],[66,-9],[47,-35],[-21,-32],[52,-21],[137,-92],[8,-47],[63,-19],[133,-72],[10,-42],[92,-1],[115,-38],[143,-64],[35,-46],[2,-56],[45,-5]],[[2726,2944],[45,42],[84,-43],[46,20],[70,-14],[45,43],[-78,60],[-60,68],[-51,8],[14,40]],[[2841,3168],[3,71],[47,28],[43,-3],[127,43],[19,59],[68,17],[31,28],[7,96],[39,121]],[[3225,3628],[72,-15],[51,34],[34,-125],[33,-48],[71,-46],[-45,-73],[44,-10],[-20,-49],[-68,4],[-50,-26],[-27,-75],[-63,-38],[-53,-57],[-32,2],[-65,-51],[-44,-16],[105,-86],[45,-25],[13,-40],[-45,-58],[-50,-2],[-82,-45],[-16,-94],[-42,-78],[-46,76],[-60,-9]],[[2885,2678],[-46,63],[-70,-2],[-35,43],[4,68],[-31,75],[19,19]],[[3239,3061],[54,-20],[15,-51],[-68,2],[-1,69]],[[2552,3164],[-19,79],[-56,79],[35,60],[-23,29],[3,53],[-43,29],[16,81],[-8,61]],[[2457,3635],[68,33],[9,34],[84,-11],[41,31],[-2,90],[40,33],[16,136]],[[2713,3981],[108,1],[25,-93],[104,63],[35,-20],[6,-48],[48,-52],[74,-55],[43,-9],[28,54],[62,-51],[-25,-102],[4,-41]],[[2841,3168],[-41,-12],[-18,-55],[-38,0],[-106,60],[-55,-23],[-31,26]],[[2001,2732],[19,83],[40,28]],[[2060,2843],[54,43],[162,45],[-3,26],[-83,-25],[-94,23]],[[2096,2955],[62,57],[61,-12],[54,11],[-14,53]],[[2259,3064],[125,15],[40,-6],[101,25],[50,-19],[26,35],[31,-91],[33,3],[-5,61],[59,-12],[21,-37],[-14,-94]],[[2885,2678],[-54,-30],[-6,-47],[-37,-45],[-113,-41],[-19,-27],[-83,-31],[-69,6]],[[2504,2463],[-28,35],[-64,18],[-79,1],[-66,104],[-27,5],[-51,62],[-86,42],[-53,-14],[-49,16]],[[1510,2061],[57,207],[51,38],[68,25],[45,52],[-74,40],[30,32],[6,49]],[[1693,2504],[40,21],[26,58],[72,53],[41,-21],[81,22],[3,51],[45,44]],[[2504,2463],[-213,26],[-3,-46],[70,22],[67,-3],[64,-25],[88,-64],[-33,-48],[-48,-16],[-1,-45],[77,-26],[-15,-35],[-75,-15],[65,-56],[-22,-50],[-6,-89]],[[2519,1993],[-62,-13],[-26,83],[-42,-13],[-45,50],[-55,4],[-120,-94],[40,-127],[-67,-39],[-114,37],[-116,-123]],[[1912,1758],[-127,4],[-72,170],[30,49],[-31,88],[-103,-33],[-99,25]],[[1912,1758],[110,-70],[-22,-121],[-48,1],[4,-89],[-19,-52],[31,-44]],[[1968,1383],[-72,25],[-136,-22],[-82,-48],[-7,37],[-50,32],[-109,-26],[-5,-24],[-95,-7],[-6,-108],[29,-31],[-25,-53],[-44,-2],[-51,110],[-54,17],[-147,-5],[-11,-50]],[[1103,1228],[-30,10],[-4,52],[-69,32],[-89,-8],[-67,-47],[-18,72],[22,16]],[[848,1355],[32,63],[35,9],[47,48],[149,183],[-1,50],[28,30],[10,160],[-18,74],[33,51],[45,-1],[38,-31],[50,14],[21,34],[0,58],[46,-5]],[[1363,2092],[-10,-60],[-36,-80],[13,-126],[50,4],[13,78],[31,50],[45,26],[41,77]],[[1968,1383],[3,-35],[94,-61],[50,-69],[-14,-42],[-141,-18],[15,-70],[-86,-20],[30,-48],[0,-51],[-27,-31],[-12,-89]],[[1880,849],[-63,-15],[-88,-5],[-66,-72],[-101,28],[-68,43]],[[1494,828],[-129,35],[-57,4],[-56,-29],[-108,-13],[-102,-28],[-56,17]],[[986,814],[9,62],[-44,112],[-22,24],[-11,115],[172,38],[13,63]],[[2519,1993],[9,-61],[-75,-19],[-30,-39],[75,-69],[2,-37],[-40,-43],[-11,-50],[54,-70],[-31,-86],[-62,-66],[-7,-65],[18,-49],[39,-16],[-41,-54],[-58,-268],[-35,-8],[-24,-94],[-49,-58],[-30,-110]],[[2223,731],[-96,-4],[-27,16],[-75,95],[-71,33],[-74,-22]],[[2438,1064],[39,89],[47,14],[27,83],[53,87],[31,135],[43,48],[33,-34],[-34,-38],[8,-61],[-35,-55],[-22,-75],[-26,-21],[-21,-118],[-22,-6],[-33,-111],[-4,-58],[-60,-145],[8,-25],[-44,-106],[-37,27],[1,119],[-11,111],[59,140]],[[3316,1894],[47,15],[52,60],[33,-59],[37,69],[65,-11],[64,67],[26,-38],[-38,-21],[-6,-49],[-71,-55],[-1,-47],[-59,12],[-18,-171],[22,-36],[59,-23],[-13,-32],[-65,-20],[-30,-45],[5,-61],[-123,-80],[-29,-40],[-3,-99],[-81,-30],[28,84],[1,85],[-36,23],[3,119],[-35,142],[6,29],[61,50],[99,162]],[[2223,731],[-19,-66],[-74,-115],[-77,77],[-64,2],[-116,-41],[-12,32],[-62,-13],[-187,-8],[-45,6],[19,-66],[30,-27],[-58,-26],[-56,34]],[[1502,520],[24,29],[-21,104],[-52,5],[-24,83],[65,87]],[[1502,520],[-38,-12],[-55,-50],[-71,-99],[3,-102],[29,-16],[40,-97],[-86,-116],[-63,3],[-71,40],[-130,-13],[-28,-30],[-53,2],[-74,-30],[-175,52],[-28,128],[68,36],[5,58],[-54,56],[-13,66],[-34,7],[-34,105],[-78,99],[-34,122],[134,-67],[29,33],[-47,72],[-49,25],[-3,30],[47,25],[83,-17]],[[722,830],[19,-58],[97,-14],[24,-18],[49,44],[75,30]],[[722,830],[27,79],[-19,71],[-81,0],[-51,106],[2,37],[-121,82],[7,44],[-34,39],[-17,72],[-52,64],[26,40],[-7,45],[-81,21],[-25,62],[14,88]],[[310,1680],[42,-10],[115,37],[26,-29],[-2,-73],[29,-45],[-10,-51],[13,-53],[48,36],[83,5],[69,-50],[34,-2],[2,-68],[33,7],[56,-29]],[[310,1680],[5,50],[-88,57],[32,44],[-44,63],[59,118],[3,67],[45,82],[-35,66],[-40,14],[-66,-37],[-76,45],[-40,50],[1,71],[-21,72],[19,24],[-52,116],[6,66],[-18,56],[19,19],[-14,58],[39,56],[67,13],[38,-71],[-7,-90],[23,-14],[66,26],[30,93],[34,45],[-4,76],[28,19]],[[319,2934],[58,18],[125,4],[13,-54],[68,-6],[17,-40],[48,-10],[31,45],[55,-33],[0,-62]],[[734,2796],[-56,-84],[-9,-58],[-69,-94],[1,-43],[76,-38],[-98,-109],[-36,-19],[-29,-56],[84,-1],[39,51],[134,23],[105,147],[49,-19],[-43,-118],[74,-2],[22,72],[121,58],[71,7],[-45,86],[9,24],[76,-12],[49,9],[27,78],[-8,36],[51,28]],[[1329,2762],[41,0],[26,-32]],[[1396,2730],[24,-124],[58,-28],[4,-54],[114,-18]],[[1596,2506],[-81,-57],[-5,-62],[-83,-145],[-32,-35],[-32,-115]],[[285,2100],[-124,-29],[-73,66],[135,56],[48,11],[28,-32],[-14,-72]],[[214,1996],[-47,-32],[-29,76],[67,40],[45,-24],[-36,-60]],[[319,2934],[3,81],[-14,33],[-28,152],[23,37],[49,9],[40,52],[-28,92],[48,40],[82,-7],[84,49],[44,53],[45,108],[-13,106],[50,64],[0,81],[-37,62],[3,36],[-48,72],[-15,111],[-42,96],[107,21],[80,2]],[[752,4284],[9,-38],[192,-186],[11,-51],[94,-131],[24,-60],[82,-24],[64,-112],[81,-24],[43,4],[31,-109],[96,-56]],[[1479,3497],[-11,-264],[18,-105],[-1,-63],[-39,-38],[-25,-55],[-18,-123],[21,-45],[-28,-74]],[[1329,2762],[-9,49],[-66,-4],[56,96],[-15,69],[-38,-2],[-57,38],[-53,9],[-39,-16],[-46,-63],[-52,79],[-43,-6],[-83,-84],[50,-135],[12,-115],[-67,8],[-11,74],[-78,54],[-56,-17]],[[1992,2972],[-30,4],[-116,-35],[63,-22],[58,20],[36,-39],[6,-53],[51,-4]],[[1693,2504],[18,34],[-47,45],[-25,-53],[-43,-24]],[[1479,3497],[132,-17],[-12,68],[55,21],[34,-46],[61,6],[25,-33],[86,-71],[34,-51]],[[1894,3374],[35,-49],[24,-65],[-19,-38],[47,-18],[7,-81],[42,4],[0,-79],[-56,3],[28,-56],[-10,-23]],[[1894,3374],[55,75],[64,-12],[13,55],[-21,24],[49,99],[49,-9],[31,23],[38,-36],[51,-17],[10,-38],[79,8],[81,85],[64,4]],[[2552,3164],[-37,3],[-46,-31],[-58,48],[-58,-81],[-94,-39]],[[2096,2955],[-104,17]],[[752,4284],[12,71],[35,24],[39,129],[-109,163],[-61,-3],[-106,122],[77,399]],[[639,5189],[124,-34],[72,4],[142,-156],[55,25],[30,-39],[-68,-55],[82,-83],[77,-118],[151,-30],[89,-2],[64,-16],[59,13]],[[1516,4698],[64,-22],[37,-67],[132,-15],[37,84],[29,-69],[177,-215],[12,-69],[32,-53],[74,-35],[88,-7],[42,-91],[69,-67],[-31,-81],[-33,-47],[-40,-11],[56,-68],[57,-97],[50,-12],[48,-53],[5,-41],[36,-27]],[[1582,4098],[27,-36],[135,48],[-8,47],[-54,-36],[-68,59],[-44,-5],[12,-77]],[[1516,4698],[12,121],[67,90],[142,-21],[28,58],[-11,33],[132,91],[-7,57],[-29,64]],[[1850,5191],[62,48],[56,4],[162,-64],[16,-14],[181,1],[114,-22],[46,-23],[231,-20]],[[2718,5101],[-13,-101],[-29,-46],[-14,-67],[29,-27],[-1,-44],[54,-34],[-13,-64],[-84,50],[-59,-118],[29,-54],[-29,-45],[8,-38],[51,-51],[-42,-73],[15,-108],[28,-41],[-23,-37],[48,-73],[-12,-39],[46,-39],[-52,-44],[58,-27]],[[1850,5191],[-66,-17],[-85,43],[-44,107],[-16,100],[112,2],[25,-22],[46,28],[134,18],[145,64],[65,-13],[49,19],[46,-11],[10,51],[100,119],[138,20],[-166,168],[-188,143],[3,46],[-59,4],[2,87],[-76,82],[73,-11],[41,31],[60,-24],[45,6],[92,36],[-17,77],[3,54],[49,101]],[[2371,6499],[47,-43],[329,-46],[250,97],[36,-29],[-16,-33],[27,-55],[160,-28],[117,-139],[1,-31],[44,-63]],[[3366,6129],[-12,-105],[-43,-11],[-1,-62],[-63,-15],[-81,-51],[-43,1],[-37,-70],[20,-67],[-56,-113],[-41,-7],[-83,-123],[8,-46],[-60,-44],[-21,-57],[-40,18],[-77,-49],[-13,-51],[-37,-37],[33,-45],[61,-14],[-62,-80]],[[639,5189],[-87,269],[36,100],[-16,115],[52,67],[-81,207],[99,148],[-20,86],[56,55],[38,68],[119,160],[83,56],[117,31],[197,-39],[97,-28],[77,140],[-11,200],[-77,35],[-92,58],[208,351],[44,51]],[[1478,7319],[166,-133],[27,-60],[61,-38],[5,-43],[69,-28],[37,-50],[11,-51],[67,-45],[60,14],[21,-91],[102,-58],[3,-55],[64,7],[200,-189]],[[1562,5887],[-70,16],[-40,29],[-116,35],[54,-89],[-8,-26],[84,-40],[28,-95],[-3,-114],[43,44],[-31,178],[52,19],[7,43]],[[1478,7319],[16,97],[46,40],[2,107],[16,181],[35,90],[-35,239],[175,10],[155,105],[-7,47]],[[1881,8235],[124,-40],[267,-179],[71,0],[322,-276],[187,-52],[44,-48],[48,-9],[57,-39],[44,0],[58,-50],[69,-26],[93,-57],[-9,-35],[62,-43],[82,53],[70,140],[327,-112],[197,-16],[11,-28],[73,-32]],[[4078,7386],[-43,-88],[-42,-17],[15,-38],[-62,-90],[68,-4],[13,-121],[78,-36],[21,-60],[33,-22],[-41,-71],[-73,-55],[-89,-109],[-9,-72],[-25,-84],[-50,-104],[-56,-10],[-29,-35],[-7,-55],[-40,-25],[-104,0],[-105,-119],[-53,-2],[-37,-34],[-75,-6]],[[1881,8235],[-27,97],[83,86],[121,211],[125,108],[14,112],[-13,47],[-95,140],[27,65],[71,13],[36,62],[52,217],[155,107],[29,51],[119,-51],[86,-55],[71,171],[-34,158],[1,99],[89,38],[67,-49],[119,18],[303,-87],[96,107],[-97,38],[80,94],[24,98],[-15,82],[-72,83],[146,25],[66,-9],[47,-35],[-21,-32],[52,-21],[76,-55],[23,-37],[38,0],[8,-47],[63,-19],[133,-72],[10,-42],[92,-1],[115,-38],[61,-35],[82,-29],[35,-46],[2,-56],[45,-5],[49,-77],[89,-49],[11,-43],[-37,-17],[-7,-51],[15,-106],[31,-40],[-31,-107],[130,-35],[1,-103],[-40,-14],[0,-77],[42,-48],[8,-38],[60,-58],[79,-102],[-26,-45],[13,-136],[-66,-96],[23,-47],[-12,-66],[48,-91],[77,-14],[11,-55],[106,-200],[-108,-20],[-33,20],[-108,-48],[-79,22],[-27,-82],[-106,49],[-26,54],[-41,3],[29,-113],[-108,96],[-34,-16],[-2,-103],[28,-120],[-46,11],[-17,-40],[-99,-6],[49,-43],[-22,-37],[-97,-13],[-67,-41],[84,-46],[-35,-44],[21,-71],[-21,-52]],[[2928,7771],[-14,51],[-73,13],[-94,98],[15,40],[-18,48],[51,9],[-74,52],[-21,44],[-57,24],[-121,114],[-82,33],[-8,-21],[91,-46],[47,-53],[6,-34],[55,-21],[85,-76],[-70,-30],[39,-47],[0,-100],[46,45],[57,-69],[38,-94],[102,20]]],"transform":{"scale":[129.48082630764583,148.83512364566542],"translate":[277247.6444918445,6133891.224180569]},"objects":{"kommuner":{"type":"GeometryCollection","geometries":[{"arcs":[[0,1,2,3,4,5]],"type":"Polygon","properties":{"KnKod":"0114","KnNamn":"Upplands Väsby"}},{"arcs":[[6,-4,7,8,9]],"type":"Polygon","properties":{"KnKod":"0115","KnNamn":"Vallentuna"}},{"arcs":[[10,11,12,-10,13,14]],"type":"Polygon","properties":{"KnKod":"0117","KnNamn":"Österåker"}},{"arcs":[[[15,16]],[[17]]],"type":"MultiPolygon","properties":{"KnKod":"0120","KnNamn":"Värmdö"}},{"arcs":[[18,-1,19,20,21]],"type":"Polygon","properties":{"KnKod":"0123","KnNamn":"Järfälla"}},{"arcs":[[22]],"type":"Polygon","properties":{"KnKod":"0125","KnNamn":"Ekerö"}},{"arcs":[[23,24,25,26,27]],"type":"Polygon","properties":{"KnKod":"0126","KnNamn":"Huddinge"}},{"arcs":[[28,29,30,31,-26,32,33]],"type":"Polygon","properties":{"KnKod":"0127","KnNamn":"Botkyrka"}},{"arcs":[[34,-31,35]],"type":"Polygon","properties":{"KnKod":"0128","KnNamn":"Salem"}},{"arcs":[[36,37,-33,-25,38]],"type":"Polygon","properties":{"KnKod":"0136","KnNamn":"Haninge"}},{"arcs":[[-24,39,40,41,-39]],"type":"Polygon","properties":{"KnKod":"0138","KnNamn":"Tyresö"}},{"arcs":[[-2,-19,42,43,44]],"type":"Polygon","properties":{"KnKod":"0139","KnNamn":"Upplands-Bro"}},{"arcs":[[45,46,47,48]],"type":"Polygon","properties":{"KnKod":"0140","KnNamn":"Nykvarn"}},{"arcs":[[-13,49,50,51,-5,-7]],"type":"Polygon","properties":{"KnKod":"0160","KnNamn":"Täby"}},{"arcs":[[-51,52,53,54]],"type":"Polygon","properties":{"KnKod":"0162","KnNamn":"Danderyd"}},{"arcs":[[-52,-55,55,56,-20,-6]],"type":"Polygon","properties":{"KnKod":"0163","KnNamn":"Sollentuna"}},{"arcs":[[[57,-40,-28,58,59,60]],[[-21,-57,61,62,63]]],"type":"MultiPolygon","properties":{"KnKod":"0180","KnNamn":"Stockholm"}},{"arcs":[[-46,64,-36,-30,65,66,67]],"type":"Polygon","properties":{"KnKod":"0181","KnNamn":"Södertälje"}},{"arcs":[[68,-41,-58]],"type":"Polygon","properties":{"KnKod":"0182","KnNamn":"Nacka"}},{"arcs":[[69,-62]],"type":"Polygon","properties":{"KnKod":"0183","KnNamn":"Sundbyberg"}},{"arcs":[[70,-63,-70,-56,-54,-60]],"type":"Polygon","properties":{"KnKod":"0184","KnNamn":"Solna"}},{"arcs":[[71]],"type":"Polygon","properties":{"KnKod":"0186","KnNamn":"Lidingö"}},{"arcs":[[-11,72]],"type":"Polygon","properties":{"KnKod":"0187","KnNamn":"Vaxholm"}},{"arcs":[[-9,73,74,75,76,-14]],"type":"Polygon","properties":{"KnKod":"0188","KnNamn":"Norrtälje"}},{"arcs":[[77,78,-74,-8,-3,-45]],"type":"Polygon","properties":{"KnKod":"0191","KnNamn":"Sigtuna"}},{"arcs":[[-34,-38,79]],"type":"Polygon","properties":{"KnKod":"0192","KnNamn":"Nynäshamn"}},{"arcs":[[-44,80,81,82,-78]],"type":"Polygon","properties":{"KnKod":"0305","KnNamn":"Håbo"}},{"arcs":[[83,84,85]],"type":"Polygon","properties":{"KnKod":"0319","KnNamn":"Älvkarleby"}},{"arcs":[[86,-79,87]],"type":"Polygon","properties":{"KnKod":"0330","KnNamn":"Knivsta"}},{"arcs":[[88,89,90,91,92,93]],"type":"Polygon","properties":{"KnKod":"0331","KnNamn":"Heby"}},{"arcs":[[94,-86,95,96,97,-94]],"type":"Polygon","properties":{"KnKod":"0360","KnNamn":"Tierp"}},{"arcs":[[-87,98,99,-89,-98,100,-75]],"type":"Polygon","properties":{"KnKod":"0380","KnNamn":"Uppsala"}},{"arcs":[[101,102,-90,-100,-82,103]],"type":"Polygon","properties":{"KnKod":"0381","KnNamn":"Enköping"}},{"arcs":[[-76,-101,-97,104]],"type":"Polygon","properties":{"KnKod":"0382","KnNamn":"Östhammar"}},{"arcs":[[105,106,107,108]],"type":"Polygon","properties":{"KnKod":"0428","KnNamn":"Vingåker"}},{"arcs":[[109,110,111,-47,-68,112]],"type":"Polygon","properties":{"KnKod":"0461","KnNamn":"Gnesta"}},{"arcs":[[113,114,115,116,117,-110,118,119]],"type":"Polygon","properties":{"KnKod":"0480","KnNamn":"Nyköping"}},{"arcs":[[120,-114]],"type":"Polygon","properties":{"KnKod":"0481","KnNamn":"Oxelösund"}},{"arcs":[[121,122,-111,-118,123]],"type":"Polygon","properties":{"KnKod":"0482","KnNamn":"Flen"}},{"arcs":[[-117,124,125,-108,126,127,-124]],"type":"Polygon","properties":{"KnKod":"0483","KnNamn":"Katrineholm"}},{"arcs":[[128,-122,-128,129,130,131,132]],"type":"Polygon","properties":{"KnKod":"0484","KnNamn":"Eskilstuna"}},{"arcs":[[-48,-112,-123,-129,133]],"type":"Polygon","properties":{"KnKod":"0486","KnNamn":"Strängnäs"}},{"arcs":[[-113,-67,134,-119]],"type":"Polygon","properties":{"KnKod":"0488","KnNamn":"Trosa"}},{"arcs":[[135,136,137,138,139,140]],"type":"Polygon","properties":{"KnKod":"0509","KnNamn":"Ödeshög"}},{"arcs":[[141,142,143,144,145,146]],"type":"Polygon","properties":{"KnKod":"0512","KnNamn":"Ydre"}},{"arcs":[[147,148,-144,149,150,151]],"type":"Polygon","properties":{"KnKod":"0513","KnNamn":"Kinda"}},{"arcs":[[152,153,-150,-143,154,-141]],"type":"Polygon","properties":{"KnKod":"0560","KnNamn":"Boxholm"}},{"arcs":[[155,156,157,158,-152]],"type":"Polygon","properties":{"KnKod":"0561","KnNamn":"Åtvidaberg"}},{"arcs":[[159,160,161,162,-109,-126,163]],"type":"Polygon","properties":{"KnKod":"0562","KnNamn":"Finspång"}},{"arcs":[[164,165,-158,166]],"type":"Polygon","properties":{"KnKod":"0563","KnNamn":"Valdemarsvik"}},{"arcs":[[-151,-154,167,168,-160,169,170,-156]],"type":"Polygon","properties":{"KnKod":"0580","KnNamn":"Linköping"}},{"arcs":[[-125,-116,171,172,-170,-164]],"type":"Polygon","properties":{"KnKod":"0581","KnNamn":"Norrköping"}},{"arcs":[[-167,-157,-171,-173,173]],"type":"Polygon","properties":{"KnKod":"0582","KnNamn":"Söderköping"}},{"arcs":[[174,-161,-169,175,176,177,178]],"type":"Polygon","properties":{"KnKod":"0583","KnNamn":"Motala"}},{"arcs":[[179,-139,180,-177]],"type":"Polygon","properties":{"KnKod":"0584","KnNamn":"Vadstena"}},{"arcs":[[-140,-180,-176,-168,-153]],"type":"Polygon","properties":{"KnKod":"0586","KnNamn":"Mjölby"}},{"arcs":[[181,182,183,-147,184]],"type":"Polygon","properties":{"KnKod":"0604","KnNamn":"Aneby"}},{"arcs":[[185,186,187]],"type":"Polygon","properties":{"KnKod":"0617","KnNamn":"Gnosjö"}},{"arcs":[[188,189,190,191,192]],"type":"Polygon","properties":{"KnKod":"0642","KnNamn":"Mullsjö"}},{"arcs":[[-193,193,194,195,196]],"type":"Polygon","properties":{"KnKod":"0643","KnNamn":"Habo"}},{"arcs":[[197,198,199,200,201,-188,202,203,204]],"type":"Polygon","properties":{"KnKod":"0662","KnNamn":"Gislaved"}},{"arcs":[[205,206,207,-186,-202,208]],"type":"Polygon","properties":{"KnKod":"0665","KnNamn":"Vaggeryd"}},{"arcs":[[-201,209,210,-189,-197,211,-137,212,-183,213,-209]],"type":"Polygon","properties":{"KnKod":"0680","KnNamn":"Jönköping"}},{"arcs":[[-214,-182,214,215,216,-206]],"type":"Polygon","properties":{"KnKod":"0682","KnNamn":"Nässjö"}},{"arcs":[[217,-203,-187,-208,218,219]],"type":"Polygon","properties":{"KnKod":"0683","KnNamn":"Värnamo"}},{"arcs":[[220,-219,-207,-217,221,222]],"type":"Polygon","properties":{"KnKod":"0684","KnNamn":"Sävsjö"}},{"arcs":[[223,224,225,-222,-216,226]],"type":"Polygon","properties":{"KnKod":"0685","KnNamn":"Vetlanda"}},{"arcs":[[-185,-146,227,228,-227,-215]],"type":"Polygon","properties":{"KnKod":"0686","KnNamn":"Eksjö"}},{"arcs":[[-155,-142,-184,-213,-136]],"type":"Polygon","properties":{"KnKod":"0687","KnNamn":"Tranås"}},{"arcs":[[-225,229,230,231,232]],"type":"Polygon","properties":{"KnKod":"0760","KnNamn":"Uppvidinge"}},{"arcs":[[233,-232,234,235,236]],"type":"Polygon","properties":{"KnKod":"0761","KnNamn":"Lessebo"}},{"arcs":[[237,238,239,240,241,-237,242,243]],"type":"Polygon","properties":{"KnKod":"0763","KnNamn":"Tingsryd"}},{"arcs":[[-241,244,245,-220,-221,246]],"type":"Polygon","properties":{"KnKod":"0764","KnNamn":"Alvesta"}},{"arcs":[[247,-245,-240,248,249,250]],"type":"Polygon","properties":{"KnKod":"0765","KnNamn":"Älmhult"}},{"arcs":[[251,-251,252,253,254]],"type":"Polygon","properties":{"KnKod":"0767","KnNamn":"Markaryd"}},{"arcs":[[-223,-226,-233,-234,-242,-247]],"type":"Polygon","properties":{"KnKod":"0780","KnNamn":"Växjö"}},{"arcs":[[255,256,257,-204,-218,-246,-248,-252]],"type":"Polygon","properties":{"KnKod":"0781","KnNamn":"Ljungby"}},{"arcs":[[258,259,260,-230,261]],"type":"Polygon","properties":{"KnKod":"0821","KnNamn":"Högsby"}},{"arcs":[[262,263,264,265]],"type":"Polygon","properties":{"KnKod":"0834","KnNamn":"Torsås"}},{"arcs":[[266,267]],"type":"Polygon","properties":{"KnKod":"0840","KnNamn":"Mörbylånga"}},{"arcs":[[268,-262,-224,-229,269]],"type":"Polygon","properties":{"KnKod":"0860","KnNamn":"Hultsfred"}},{"arcs":[[270,271,272,-260,273]],"type":"Polygon","properties":{"KnKod":"0861","KnNamn":"Mönsterås"}},{"arcs":[[274,-264,275,276,-243,-236,277]],"type":"Polygon","properties":{"KnKod":"0862","KnNamn":"Emmaboda"}},{"arcs":[[-275,278,-272,279,-265]],"type":"Polygon","properties":{"KnKod":"0880","KnNamn":"Kalmar"}},{"arcs":[[-235,-231,-261,-273,-279,-278]],"type":"Polygon","properties":{"KnKod":"0881","KnNamn":"Nybro"}},{"arcs":[[-259,-269,280,281,282,-274]],"type":"Polygon","properties":{"KnKod":"0882","KnNamn":"Oskarshamn"}},{"arcs":[[-282,283,-148,-159,-166,284]],"type":"Polygon","properties":{"KnKod":"0883","KnNamn":"Västervik"}},{"arcs":[[-228,-145,-149,-284,-281,-270]],"type":"Polygon","properties":{"KnKod":"0884","KnNamn":"Vimmerby"}},{"arcs":[[-267,285]],"type":"Polygon","properties":{"KnKod":"0885","KnNamn":"Borgholm"}},{"arcs":[[286]],"type":"Polygon","properties":{"KnKod":"0980","KnNamn":"Gotland"}},{"arcs":[[287,288,289,290,-249,-239,291]],"type":"Polygon","properties":{"KnKod":"1060","KnNamn":"Olofström"}},{"arcs":[[-276,-263,292,293]],"type":"Polygon","properties":{"KnKod":"1080","KnNamn":"Karlskrona"}},{"arcs":[[-277,-294,294,295,-244]],"type":"Polygon","properties":{"KnKod":"1081","KnNamn":"Ronneby"}},{"arcs":[[-292,-238,-296,296,297]],"type":"Polygon","properties":{"KnKod":"1082","KnNamn":"Karlshamn"}},{"arcs":[[-298,298,299,-288]],"type":"Polygon","properties":{"KnKod":"1083","KnNamn":"Sölvesborg"}},{"arcs":[[300,301,302,303,304,305,306]],"type":"Polygon","properties":{"KnKod":"1214","KnNamn":"Svalöv"}},{"arcs":[[307,308,309,310,311]],"type":"Polygon","properties":{"KnKod":"1230","KnNamn":"Staffanstorp"}},{"arcs":[[312,313,314,-310]],"type":"Polygon","properties":{"KnKod":"1231","KnNamn":"Burlöv"}},{"arcs":[[315,316,317,318]],"type":"Polygon","properties":{"KnKod":"1233","KnNamn":"Vellinge"}},{"arcs":[[319,320,321]],"type":"Polygon","properties":{"KnKod":"1256","KnNamn":"Östra Göinge"}},{"arcs":[[322,323,-254,324,325,326]],"type":"Polygon","properties":{"KnKod":"1257","KnNamn":"Örkelljunga"}},{"arcs":[[327,328,-304]],"type":"Polygon","properties":{"KnKod":"1260","KnNamn":"Bjuv"}},{"arcs":[[329,330,-301,331,332,333]],"type":"Polygon","properties":{"KnKod":"1261","KnNamn":"Kävlinge"}},{"arcs":[[334,-311,-315,335,-334]],"type":"Polygon","properties":{"KnKod":"1262","KnNamn":"Lomma"}},{"arcs":[[-317,336,-308,337,338]],"type":"Polygon","properties":{"KnKod":"1263","KnNamn":"Svedala"}},{"arcs":[[339,340,341,342,343]],"type":"Polygon","properties":{"KnKod":"1264","KnNamn":"Skurup"}},{"arcs":[[344,345,346,347,-341,348]],"type":"Polygon","properties":{"KnKod":"1265","KnNamn":"Sjöbo"}},{"arcs":[[349,350,351,352,353,-346]],"type":"Polygon","properties":{"KnKod":"1266","KnNamn":"Hörby"}},{"arcs":[[354,355,-351,356]],"type":"Polygon","properties":{"KnKod":"1267","KnNamn":"Höör"}},{"arcs":[[357,358,-347,-354,359]],"type":"Polygon","properties":{"KnKod":"1270","KnNamn":"Tomelilla"}},{"arcs":[[-289,-300,360,361]],"type":"Polygon","properties":{"KnKod":"1272","KnNamn":"Bromölla"}},{"arcs":[[-322,362,-250,-291]],"type":"Polygon","properties":{"KnKod":"1273","KnNamn":"Osby"}},{"arcs":[[-326,363,364]],"type":"Polygon","properties":{"KnKod":"1275","KnNamn":"Perstorp"}},{"arcs":[[365,366,-327,-365,367,-355,368,-306]],"type":"Polygon","properties":{"KnKod":"1276","KnNamn":"Klippan"}},{"arcs":[[-366,-305,-329,369,370]],"type":"Polygon","properties":{"KnKod":"1277","KnNamn":"Åstorp"}},{"arcs":[[371,372,373]],"type":"Polygon","properties":{"KnKod":"1278","KnNamn":"Båstad"}},{"arcs":[[-313,-309,-337,-316,374]],"type":"Polygon","properties":{"KnKod":"1280","KnNamn":"Malmö"}},{"arcs":[[-335,-333,375,-349,-340,-338,-312]],"type":"Polygon","properties":{"KnKod":"1281","KnNamn":"Lund"}},{"arcs":[[-302,-331,376,377]],"type":"Polygon","properties":{"KnKod":"1282","KnNamn":"Landskrona"}},{"arcs":[[378,379,380,381,-370,-328,-303,-378]],"type":"Polygon","properties":{"KnKod":"1283","KnNamn":"Helsingborg"}},{"arcs":[[-380,382]],"type":"Polygon","properties":{"KnKod":"1284","KnNamn":"Höganäs"}},{"arcs":[[-350,-345,-376,-332,-307,-369,-357]],"type":"Polygon","properties":{"KnKod":"1285","KnNamn":"Eslöv"}},{"arcs":[[-342,-348,-359,383,384]],"type":"Polygon","properties":{"KnKod":"1286","KnNamn":"Ystad"}},{"arcs":[[385,-318,-339,-344]],"type":"Polygon","properties":{"KnKod":"1287","KnNamn":"Trelleborg"}},{"arcs":[[386,-360,-353,387,-320,-290,-362,388]],"type":"Polygon","properties":{"KnKod":"1290","KnNamn":"Kristianstad"}},{"arcs":[[-384,-358,-387,389]],"type":"Polygon","properties":{"KnKod":"1291","KnNamn":"Simrishamn"}},{"arcs":[[-371,-382,390,-374,391,-323,-367]],"type":"Polygon","properties":{"KnKod":"1292","KnNamn":"Ängelholm"}},{"arcs":[[-321,-388,-352,-356,-368,-364,-325,-253,-363]],"type":"Polygon","properties":{"KnKod":"1293","KnNamn":"Hässleholm"}},{"arcs":[[-258,392,393,-205]],"type":"Polygon","properties":{"KnKod":"1315","KnNamn":"Hylte"}},{"arcs":[[-257,394,395,396,-393]],"type":"Polygon","properties":{"KnKod":"1380","KnNamn":"Halmstad"}},{"arcs":[[-255,-324,-392,-373,397,-395,-256]],"type":"Polygon","properties":{"KnKod":"1381","KnNamn":"Laholm"}},{"arcs":[[398,-198,-394,-397,399,400]],"type":"Polygon","properties":{"KnKod":"1382","KnNamn":"Falkenberg"}},{"arcs":[[401,402,403,-401]],"type":"Polygon","properties":{"KnKod":"1383","KnNamn":"Varberg"}},{"arcs":[[404,405,406,-403,407]],"type":"Polygon","properties":{"KnKod":"1384","KnNamn":"Kungsbacka"}},{"arcs":[[408,409,410,411,412,413]],"type":"Polygon","properties":{"KnKod":"1401","KnNamn":"Härryda"}},{"arcs":[[414,-413,415]],"type":"Polygon","properties":{"KnKod":"1402","KnNamn":"Partille"}},{"arcs":[[416]],"type":"Polygon","properties":{"KnKod":"1407","KnNamn":"Öckerö"}},{"arcs":[[417,418,419,420]],"type":"Polygon","properties":{"KnKod":"1415","KnNamn":"Stenungsund"}},{"arcs":[[421]],"type":"Polygon","properties":{"KnKod":"1419","KnNamn":"Tjörn"}},{"arcs":[[[422]],[[423,424,425]]],"type":"MultiPolygon","properties":{"KnKod":"1421","KnNamn":"Orust"}},{"arcs":[[426,427,428,429]],"type":"Polygon","properties":{"KnKod":"1427","KnNamn":"Sotenäs"}},{"arcs":[[430,431,-428,432,433,434]],"type":"Polygon","properties":{"KnKod":"1430","KnNamn":"Munkedal"}},{"arcs":[[435,436,437,-433,-427,438]],"type":"Polygon","properties":{"KnKod":"1435","KnNamn":"Tanum"}},{"arcs":[[439,440,-434,-438,441]],"type":"Polygon","properties":{"KnKod":"1438","KnNamn":"Dals-Ed"}},{"arcs":[[-441,442,443,444,445,-435]],"type":"Polygon","properties":{"KnKod":"1439","KnNamn":"Färgelanda"}},{"arcs":[[446,447,448,449,450,451]],"type":"Polygon","properties":{"KnKod":"1440","KnNamn":"Ale"}},{"arcs":[[-415,452,-450,453,454,-414]],"type":"Polygon","properties":{"KnKod":"1441","KnNamn":"Lerum"}},{"arcs":[[455,456,457,458,459]],"type":"Polygon","properties":{"KnKod":"1442","KnNamn":"Vårgårda"}},{"arcs":[[460,461,462,-409,-455,463]],"type":"Polygon","properties":{"KnKod":"1443","KnNamn":"Bollebygd"}},{"arcs":[[464,465,466,467,468]],"type":"Polygon","properties":{"KnKod":"1444","KnNamn":"Grästorp"}},{"arcs":[[469,-469,470,471,-457,472]],"type":"Polygon","properties":{"KnKod":"1445","KnNamn":"Essunga"}},{"arcs":[[473,474,475,476,477,478]],"type":"Polygon","properties":{"KnKod":"1446","KnNamn":"Karlsborg"}},{"arcs":[[479,480,481,482,483]],"type":"Polygon","properties":{"KnKod":"1447","KnNamn":"Gullspång"}},{"arcs":[[484,-210,-200,485,486]],"type":"Polygon","properties":{"KnKod":"1452","KnNamn":"Tranemo"}},{"arcs":[[487,488,489,-443,-440]],"type":"Polygon","properties":{"KnKod":"1460","KnNamn":"Bengtsfors"}},{"arcs":[[490,-444,-490,491,492]],"type":"Polygon","properties":{"KnKod":"1461","KnNamn":"Mellerud"}},{"arcs":[[493,-420,494,495,-447]],"type":"Polygon","properties":{"KnKod":"1462","KnNamn":"Lilla Edet"}},{"arcs":[[-407,-410,-463,496,497,-404]],"type":"Polygon","properties":{"KnKod":"1463","KnNamn":"Mark"}},{"arcs":[[-199,-399,-498,498,-486]],"type":"Polygon","properties":{"KnKod":"1465","KnNamn":"Svenljunga"}},{"arcs":[[499,500,-458,-472,501,502]],"type":"Polygon","properties":{"KnKod":"1466","KnNamn":"Herrljunga"}},{"arcs":[[503,504,-502,-471,-468,505]],"type":"Polygon","properties":{"KnKod":"1470","KnNamn":"Vara"}},{"arcs":[[506,507,508,509,510]],"type":"Polygon","properties":{"KnKod":"1471","KnNamn":"Götene"}},{"arcs":[[511,-478,512,513]],"type":"Polygon","properties":{"KnKod":"1472","KnNamn":"Tibro"}},{"arcs":[[514,-483,515,-479,-512,516]],"type":"Polygon","properties":{"KnKod":"1473","KnNamn":"Töreboda"}},{"arcs":[[-451,-453,-416,-412,517,-405,518,519]],"type":"Polygon","properties":{"KnKod":"1480","KnNamn":"Göteborg"}},{"arcs":[[-411,-406,-518]],"type":"Polygon","properties":{"KnKod":"1481","KnNamn":"Mölndal"}},{"arcs":[[520,-421,-494,-452,-520]],"type":"Polygon","properties":{"KnKod":"1482","KnNamn":"Kungälv"}},{"arcs":[[[-429,-432,521,522]],[[-426,523,524]]],"type":"MultiPolygon","properties":{"KnKod":"1484","KnNamn":"Lysekil"}},{"arcs":[[-424,-525,525,-522,-431,-446,526,-495,-419,527]],"type":"Polygon","properties":{"KnKod":"1485","KnNamn":"Uddevalla"}},{"arcs":[[528,-436]],"type":"Polygon","properties":{"KnKod":"1486","KnNamn":"Strömstad"}},{"arcs":[[-527,-445,-491,529,-466,530]],"type":"Polygon","properties":{"KnKod":"1487","KnNamn":"Vänersborg"}},{"arcs":[[-465,-470,531,-448,-496,-531]],"type":"Polygon","properties":{"KnKod":"1488","KnNamn":"Trollhättan"}},{"arcs":[[-449,-532,-473,-456,-464,-454]],"type":"Polygon","properties":{"KnKod":"1489","KnNamn":"Alingsås"}},{"arcs":[[-487,-499,-497,-462,532,-459,-501,533]],"type":"Polygon","properties":{"KnKod":"1490","KnNamn":"Borås"}},{"arcs":[[-534,-500,534,-190,-211,-485]],"type":"Polygon","properties":{"KnKod":"1491","KnNamn":"Ulricehamn"}},{"arcs":[[535,-492,-489,536]],"type":"Polygon","properties":{"KnKod":"1492","KnNamn":"Åmål"}},{"arcs":[[-511,537,-484,-515,538]],"type":"Polygon","properties":{"KnKod":"1493","KnNamn":"Mariestad"}},{"arcs":[[-467,539,-509,540,-506]],"type":"Polygon","properties":{"KnKod":"1494","KnNamn":"Lidköping"}},{"arcs":[[-504,-541,-508,541,542]],"type":"Polygon","properties":{"KnKod":"1495","KnNamn":"Skara"}},{"arcs":[[-514,543,544,545,-542,-507,-539,-517]],"type":"Polygon","properties":{"KnKod":"1496","KnNamn":"Skövde"}},{"arcs":[[-544,-513,-477,546,-195,547]],"type":"Polygon","properties":{"KnKod":"1497","KnNamn":"Hjo"}},{"arcs":[[-194,-192,548,-545,-548]],"type":"Polygon","properties":{"KnKod":"1498","KnNamn":"Tidaholm"}},{"arcs":[[-505,-543,-546,-549,-191,-535,-503]],"type":"Polygon","properties":{"KnKod":"1499","KnNamn":"Falköping"}},{"arcs":[[549,550,551,552,553]],"type":"Polygon","properties":{"KnKod":"1715","KnNamn":"Kil"}},{"arcs":[[554,555,556]],"type":"Polygon","properties":{"KnKod":"1730","KnNamn":"Eda"}},{"arcs":[[557,558,559,560,561]],"type":"Polygon","properties":{"KnKod":"1737","KnNamn":"Torsby"}},{"arcs":[[562,563,564,565,566]],"type":"Polygon","properties":{"KnKod":"1760","KnNamn":"Storfors"}},{"arcs":[[567,568]],"type":"Polygon","properties":{"KnKod":"1761","KnNamn":"Hammarö"}},{"arcs":[[569,570,571]],"type":"Polygon","properties":{"KnKod":"1762","KnNamn":"Munkfors"}},{"arcs":[[-553,572,-571,573,574]],"type":"Polygon","properties":{"KnKod":"1763","KnNamn":"Forshaga"}},{"arcs":[[-550,575,576,577,578]],"type":"Polygon","properties":{"KnKod":"1764","KnNamn":"Grums"}},{"arcs":[[579,-555,580,581,-488]],"type":"Polygon","properties":{"KnKod":"1765","KnNamn":"Årjäng"}},{"arcs":[[-573,-552,582,-562,583,-572]],"type":"Polygon","properties":{"KnKod":"1766","KnNamn":"Sunne"}},{"arcs":[[584,585,-563,586,587,-568,588,-576,-554,-575]],"type":"Polygon","properties":{"KnKod":"1780","KnNamn":"Karlstad"}},{"arcs":[[-587,-567,589,590,-481,591]],"type":"Polygon","properties":{"KnKod":"1781","KnNamn":"Kristinehamn"}},{"arcs":[[592,593,594,595,-564,-586,596]],"type":"Polygon","properties":{"KnKod":"1782","KnNamn":"Filipstad"}},{"arcs":[[-585,-574,-570,-584,-561,597,-597]],"type":"Polygon","properties":{"KnKod":"1783","KnNamn":"Hagfors"}},{"arcs":[[-583,-551,-579,598,-581,-557,599,-558]],"type":"Polygon","properties":{"KnKod":"1784","KnNamn":"Arvika"}},{"arcs":[[-582,-599,-578,600,-537]],"type":"Polygon","properties":{"KnKod":"1785","KnNamn":"Säffle"}},{"arcs":[[601,602,603,604,605,606,607]],"type":"Polygon","properties":{"KnKod":"1814","KnNamn":"Lekeberg"}},{"arcs":[[-474,-516,-482,608,-608,609,610]],"type":"Polygon","properties":{"KnKod":"1860","KnNamn":"Laxå"}},{"arcs":[[-610,-607,611,612,-162,-175,613]],"type":"Polygon","properties":{"KnKod":"1861","KnNamn":"Hallsberg"}},{"arcs":[[-602,-609,-591,614]],"type":"Polygon","properties":{"KnKod":"1862","KnNamn":"Degerfors"}},{"arcs":[[615,-565,-596,616,617,618,619]],"type":"Polygon","properties":{"KnKod":"1863","KnNamn":"Hällefors"}},{"arcs":[[620,621,-618,622]],"type":"Polygon","properties":{"KnKod":"1864","KnNamn":"Ljusnarsberg"}},{"arcs":[[623,-604,624,625,626,627,628,-106,-163,-613,629]],"type":"Polygon","properties":{"KnKod":"1880","KnNamn":"Örebro"}},{"arcs":[[-630,-612,-606,630]],"type":"Polygon","properties":{"KnKod":"1881","KnNamn":"Kumla"}},{"arcs":[[-475,-611,-614,-179,631]],"type":"Polygon","properties":{"KnKod":"1882","KnNamn":"Askersund"}},{"arcs":[[-590,-566,-616,632,-625,-603,-615]],"type":"Polygon","properties":{"KnKod":"1883","KnNamn":"Karlskoga"}},{"arcs":[[-633,-620,633,-626]],"type":"Polygon","properties":{"KnKod":"1884","KnNamn":"Nora"}},{"arcs":[[634,-627,-634,-619,-622,635,636,637]],"type":"Polygon","properties":{"KnKod":"1885","KnNamn":"Lindesberg"}},{"arcs":[[-637,638,639,640,641]],"type":"Polygon","properties":{"KnKod":"1904","KnNamn":"Skinnskatteberg"}},{"arcs":[[-641,642,643,644,645,646]],"type":"Polygon","properties":{"KnKod":"1907","KnNamn":"Surahammar"}},{"arcs":[[647,-132,648,649]],"type":"Polygon","properties":{"KnKod":"1960","KnNamn":"Kungsör"}},{"arcs":[[650,-646,651]],"type":"Polygon","properties":{"KnKod":"1961","KnNamn":"Hallstahammar"}},{"arcs":[[652,653,654,655,656]],"type":"Polygon","properties":{"KnKod":"1962","KnNamn":"Norberg"}},{"arcs":[[-102,657,-652,-645,658]],"type":"Polygon","properties":{"KnKod":"1980","KnNamn":"Västerås"}},{"arcs":[[-91,-103,-659,-644,659,-655,660]],"type":"Polygon","properties":{"KnKod":"1981","KnNamn":"Sala"}},{"arcs":[[-660,-643,-640,661,-656]],"type":"Polygon","properties":{"KnKod":"1982","KnNamn":"Fagersta"}},{"arcs":[[-647,-651,662,-650,663,-638,-642]],"type":"Polygon","properties":{"KnKod":"1983","KnNamn":"Köping"}},{"arcs":[[-628,-635,-664,-649,-131,664]],"type":"Polygon","properties":{"KnKod":"1984","KnNamn":"Arboga"}},{"arcs":[[-594,665,666,667,668,669]],"type":"Polygon","properties":{"KnKod":"2021","KnNamn":"Vansbro"}},{"arcs":[[670,671,-666,-593,-598,-560,672]],"type":"Polygon","properties":{"KnKod":"2023","KnNamn":"Malung-Sälen"}},{"arcs":[[673,674,-669,675]],"type":"Polygon","properties":{"KnKod":"2026","KnNamn":"Gagnef"}},{"arcs":[[-668,676,677,678,679,-676]],"type":"Polygon","properties":{"KnKod":"2029","KnNamn":"Leksand"}},{"arcs":[[680,681,682,-679,683,684,685]],"type":"Polygon","properties":{"KnKod":"2031","KnNamn":"Rättvik"}},{"arcs":[[686,687,-686,688]],"type":"Polygon","properties":{"KnKod":"2034","KnNamn":"Orsa"}},{"arcs":[[689,-671,690,691]],"type":"Polygon","properties":{"KnKod":"2039","KnNamn":"Älvdalen"}},{"arcs":[[-662,-639,-636,-621,692,693,694,-657]],"type":"Polygon","properties":{"KnKod":"2061","KnNamn":"Smedjebacken"}},{"arcs":[[-685,695,-677,-667,-672,-690,696,-689]],"type":"Polygon","properties":{"KnKod":"2062","KnNamn":"Mora"}},{"arcs":[[697,698,699,-680,-683,700,701,702,703]],"type":"Polygon","properties":{"KnKod":"2080","KnNamn":"Falun"}},{"arcs":[[704,-674,-700,705]],"type":"Polygon","properties":{"KnKod":"2081","KnNamn":"Borlänge"}},{"arcs":[[-706,-699,706,-694,707]],"type":"Polygon","properties":{"KnKod":"2082","KnNamn":"Säter"}},{"arcs":[[708,-653,-695,-707,709]],"type":"Polygon","properties":{"KnKod":"2083","KnNamn":"Hedemora"}},{"arcs":[[-654,-709,710,711,-661]],"type":"Polygon","properties":{"KnKod":"2084","KnNamn":"Avesta"}},{"arcs":[[-675,-705,-708,-693,-623,-617,-595,-670]],"type":"Polygon","properties":{"KnKod":"2085","KnNamn":"Ludvika"}},{"arcs":[[712,-703,713,714,715]],"type":"Polygon","properties":{"KnKod":"2101","KnNamn":"Ockelbo"}},{"arcs":[[-698,716,-711,-710]],"type":"Polygon","properties":{"KnKod":"2104","KnNamn":"Hofors"}},{"arcs":[[717,-701,-682,718]],"type":"Polygon","properties":{"KnKod":"2121","KnNamn":"Ovanåker"}},{"arcs":[[719,720,721,722]],"type":"Polygon","properties":{"KnKod":"2132","KnNamn":"Nordanstig"}},{"arcs":[[-681,-688,723,724,725,726,-719]],"type":"Polygon","properties":{"KnKod":"2161","KnNamn":"Ljusdal"}},{"arcs":[[727,728,-84,-95,-93,729,-716]],"type":"Polygon","properties":{"KnKod":"2180","KnNamn":"Gävle"}},{"arcs":[[-713,-730,-92,-712,-717,-704]],"type":"Polygon","properties":{"KnKod":"2181","KnNamn":"Sandviken"}},{"arcs":[[730,731,-728,-715,732]],"type":"Polygon","properties":{"KnKod":"2182","KnNamn":"Söderhamn"}},{"arcs":[[-733,-714,-702,-718,-727,733]],"type":"Polygon","properties":{"KnKod":"2183","KnNamn":"Bollnäs"}},{"arcs":[[-734,-726,734,-723,735,-731]],"type":"Polygon","properties":{"KnKod":"2184","KnNamn":"Hudiksvall"}},{"arcs":[[736,-720,-735,-725,737,738,739]],"type":"Polygon","properties":{"KnKod":"2260","KnNamn":"Ånge"}},{"arcs":[[740,741,742]],"type":"Polygon","properties":{"KnKod":"2262","KnNamn":"Timrå"}},{"arcs":[[743,744,-741,745]],"type":"Polygon","properties":{"KnKod":"2280","KnNamn":"Härnösand"}},{"arcs":[[746,-721,-737,747,748,749,-743]],"type":"Polygon","properties":{"KnKod":"2281","KnNamn":"Sundsvall"}},{"arcs":[[750,751,-744,752]],"type":"Polygon","properties":{"KnKod":"2282","KnNamn":"Kramfors"}},{"arcs":[[-750,753,754,755,756,757,-753,-746]],"type":"Polygon","properties":{"KnKod":"2283","KnNamn":"Sollefteå"}},{"arcs":[[758,759,-751,-758,760,761]],"type":"Polygon","properties":{"KnKod":"2284","KnNamn":"Örnsköldsvik"}},{"arcs":[[762,-754,-749,763,764]],"type":"Polygon","properties":{"KnKod":"2303","KnNamn":"Ragunda"}},{"arcs":[[765,766,-764,-748,-740]],"type":"Polygon","properties":{"KnKod":"2305","KnNamn":"Bräcke"}},{"arcs":[[767,768,769,770,771]],"type":"Polygon","properties":{"KnKod":"2309","KnNamn":"Krokom"}},{"arcs":[[772,-768,773,774,775,-755,-763]],"type":"Polygon","properties":{"KnKod":"2313","KnNamn":"Strömsund"}},{"arcs":[[776,777,778,-771]],"type":"Polygon","properties":{"KnKod":"2321","KnNamn":"Åre"}},{"arcs":[[-739,779,780,-778,781,782,-766]],"type":"Polygon","properties":{"KnKod":"2326","KnNamn":"Berg"}},{"arcs":[[783,-780,-738,-724,-687,-697,-692]],"type":"Polygon","properties":{"KnKod":"2361","KnNamn":"Härjedalen"}},{"arcs":[[-765,-767,-783,784,-769,-773]],"type":"Polygon","properties":{"KnKod":"2380","KnNamn":"Östersund"}},{"arcs":[[785,786,787,788,-759]],"type":"Polygon","properties":{"KnKod":"2401","KnNamn":"Nordmaling"}},{"arcs":[[-762,789,790,791,792,-786]],"type":"Polygon","properties":{"KnKod":"2403","KnNamn":"Bjurholm"}},{"arcs":[[-792,793,794,795,796,797]],"type":"Polygon","properties":{"KnKod":"2404","KnNamn":"Vindeln"}},{"arcs":[[798,799,800]],"type":"Polygon","properties":{"KnKod":"2409","KnNamn":"Robertsfors"}},{"arcs":[[-795,801,802,803,804]],"type":"Polygon","properties":{"KnKod":"2417","KnNamn":"Norsjö"}},{"arcs":[[805,806,-803,807]],"type":"Polygon","properties":{"KnKod":"2418","KnNamn":"Malå"}},{"arcs":[[808,809,810,811]],"type":"Polygon","properties":{"KnKod":"2421","KnNamn":"Storuman"}},{"arcs":[[812,-810,813,814,815,-806]],"type":"Polygon","properties":{"KnKod":"2422","KnNamn":"Sorsele"}},{"arcs":[[816,817,-756,-776]],"type":"Polygon","properties":{"KnKod":"2425","KnNamn":"Dorotea"}},{"arcs":[[-798,818,-787,-793]],"type":"Polygon","properties":{"KnKod":"2460","KnNamn":"Vännäs"}},{"arcs":[[819,-817,-775,820,-812,821]],"type":"Polygon","properties":{"KnKod":"2462","KnNamn":"Vilhelmina"}},{"arcs":[[-790,-761,-757,-818,-820,822]],"type":"Polygon","properties":{"KnKod":"2463","KnNamn":"Åsele"}},{"arcs":[[-797,823,-799,824,-788,-819]],"type":"Polygon","properties":{"KnKod":"2480","KnNamn":"Umeå"}},{"arcs":[[-808,-802,-794,-791,-823,-822,-811,-813]],"type":"Polygon","properties":{"KnKod":"2481","KnNamn":"Lycksele"}},{"arcs":[[-800,-824,-796,-805,825,826,827]],"type":"Polygon","properties":{"KnKod":"2482","KnNamn":"Skellefteå"}},{"arcs":[[-816,828,829,830,831,832,833,-826,-804,-807]],"type":"Polygon","properties":{"KnKod":"2505","KnNamn":"Arvidsjaur"}},{"arcs":[[-829,-815,834,835,-831,836]],"type":"Polygon","properties":{"KnKod":"2506","KnNamn":"Arjeplog"}},{"arcs":[[837,838,-832,-836,839,840]],"type":"Polygon","properties":{"KnKod":"2510","KnNamn":"Jokkmokk"}},{"arcs":[[841,842,843,844,845,846]],"type":"Polygon","properties":{"KnKod":"2513","KnNamn":"Överkalix"}},{"arcs":[[847,-843,848,849,850]],"type":"Polygon","properties":{"KnKod":"2514","KnNamn":"Kalix"}},{"arcs":[[-849,-842,851,852,853]],"type":"Polygon","properties":{"KnKod":"2518","KnNamn":"Övertorneå"}},{"arcs":[[-852,-847,854,855,856]],"type":"Polygon","properties":{"KnKod":"2521","KnNamn":"Pajala"}},{"arcs":[[857,858,-855,-846,859,-841]],"type":"Polygon","properties":{"KnKod":"2523","KnNamn":"Gällivare"}},{"arcs":[[-839,860,861,-833]],"type":"Polygon","properties":{"KnKod":"2560","KnNamn":"Älvsbyn"}},{"arcs":[[862,863,-844,-848,864]],"type":"Polygon","properties":{"KnKod":"2580","KnNamn":"Luleå"}},{"arcs":[[-862,-863,865,-827,-834]],"type":"Polygon","properties":{"KnKod":"2581","KnNamn":"Piteå"}},{"arcs":[[-861,-838,-860,-845,-864]],"type":"Polygon","properties":{"KnKod":"2582","KnNamn":"Boden"}},{"arcs":[[866,-850,-854]],"type":"Polygon","properties":{"KnKod":"2583","KnNamn":"Haparanda"}},{"arcs":[[-856,-859,867]],"type":"Polygon","properties":{"KnKod":"2584","KnNamn":"Kiruna"}}]},"lan":{"type":"GeometryCollection","geometries":[{"arcs":[[[868,869,870,871]],[[872]]],"type":"MultiPolygon","properties":{"LnKod":"01","LnNamn":"Stockholms"}},{"arcs":[[873,874,875,-870,876]],"type":"Polygon","properties":{"LnKod":"03","LnNamn":"Uppsala"}},{"arcs":[[877,878,879,880,-872,881,882]],"type":"Polygon","properties":{"LnKod":"04","LnNamn":"Södermanlands"}},{"arcs":[[883,884,-883,885,886,887]],"type":"Polygon","properties":{"LnKod":"05","LnNamn":"Östergötlands"}},{"arcs":[[888,889,890,891,892,-888]],"type":"Polygon","properties":{"LnKod":"06","LnNamn":"Jönköpings"}},{"arcs":[[893,894,895,896,-890]],"type":"Polygon","properties":{"LnKod":"07","LnNamn":"Kronobergs"}},{"arcs":[[[-889,-887,897,898,-894]],[[899]]],"type":"MultiPolygon","properties":{"LnKod":"08","LnNamn":"Kalmar"}},{"arcs":[[900]],"type":"Polygon","properties":{"LnKod":"09","LnNamn":"Gotlands"}},{"arcs":[[-895,-899,901,902]],"type":"Polygon","properties":{"LnKod":"10","LnNamn":"Blekinge"}},{"arcs":[[-903,903,904,-896]],"type":"Polygon","properties":{"LnKod":"12","LnNamn":"Skåne"}},{"arcs":[[-905,905,906,-891,-897]],"type":"Polygon","properties":{"LnKod":"13","LnNamn":"Hallands"}},{"arcs":[[[907,908,909,910,911,912,-892,-907]],[[913]],[[914]]],"type":"MultiPolygon","properties":{"LnKod":"14","LnNamn":"Västra Götalands"}},{"arcs":[[-909,915,916,917,-911,918]],"type":"Polygon","properties":{"LnKod":"17","LnNamn":"Värmlands"}},{"arcs":[[919,-878,-885,920,-912,-918,921,922]],"type":"Polygon","properties":{"LnKod":"18","LnNamn":"Örebro"}},{"arcs":[[923,-874,924,-880,925,-923]],"type":"Polygon","properties":{"LnKod":"19","LnNamn":"Västmanlands"}},{"arcs":[[926,927,928,-924,-922,-917],[929]],"type":"Polygon","properties":{"LnKod":"20","LnNamn":"Dalarnas"}},{"arcs":[[930,931,932,-875,-929]],"type":"Polygon","properties":{"LnKod":"21","LnNamn":"Gävleborgs"}},{"arcs":[[933,934,935,-932]],"type":"Polygon","properties":{"LnKod":"22","LnNamn":"Västernorrlands"}},{"arcs":[[-931,-928,936,937,-934],[938]],"type":"Polygon","properties":{"LnKod":"23","LnNamn":"Jämtlands"}},{"arcs":[[-935,-938,939,940,941]],"type":"Polygon","properties":{"LnKod":"24","LnNamn":"Västerbottens"}},{"arcs":[[942,-941],[943]],"type":"Polygon","properties":{"LnKod":"25","LnNamn":"Norrbottens"}}]}}}